"ATM PK","A TYPE","a type desc","BOBJECT NAME","a whours type desc","PLACE ZIP","PLACE NAME","STREET NAME","housenum full","LONG","LAT"
21183,1,"Bankomat","Trgovina Krk d.d.","u radno vrijeme objekta",51523,"Baška","Zvonimirova",121,"14° 45' 22""","44° 58' 11"""
21184,1,"Bankomat","TZ Baška Voda","0-24 h",21320,"Baška Voda","Obala Sv. Nikole",31,"16° 56' 54""","43° 21' 30"""
21185,1,"Bankomat","FX Foto studio","0-24 h",49221,"Bedekovčina","S. Radića",1,"15° 59' 38""","46° 2' 27"""
21001,1,"Bankomat","ZABA Poslovnica","0-24 h",49221,"Bedekovčina","Trg A. Starčevića",6,"15° 59' 53""","46° 2' 33"""
24001,4,"Uređaj za zaprimanje naloga","ZABA Poslovnica","u radno vrijeme objekta",49221,"Bedekovčina","Trg A. Starčevića",6,"15° 59' 53""","46° 2' 33"""
21186,1,"Bankomat","Izvor d.o.o.","0-24 h",42253,"Bednja","Ljudevita Gaja",20,"15° 58' 45""","46° 13' 40"""
21187,1,"Bankomat","Ghetaldus optika d.d.","0-24 h",31300,"Beli Manastir","Trg Slobode",33,"18° 35' 56""","45° 46' 5"""
21189,1,"Bankomat","Papirus","0-24 h",23420,"Benkovac","A. Starčevića","8/A","15° 36' 38""","44° 1' 56"""
21190,1,"Bankomat","Općina Beretinec","0-24 h",42201,"Beretinec","Trg hrvatskih branitelja",1,"16° 18' 23""","46° 14' 55"""
21191,1,"Bankomat","Beber d.o.o.","0-24 h",10437,"Bestovje","Prudnjaci",1,"15° 48' 34""","45° 48' 24"""
21192,1,"Bankomat","Općina Bibinje","0-24 h",23205,"Bibinje","Trg F. Tuđmana",1,"15° 17' 15""","44° 4' 13"""
21193,1,"Bankomat","Trinaestica","0-24 h",23210,"Biograd n/m","Obala P. Krešimira IV","BB","15° 26' 25""","43° 56' 15"""
21194,1,"Bankomat","BILLA d.o.o.","0-24 h",43000,"Bjelovar","Andrije Hebranga","2/A","16° 51' 3""","45° 54' 25"""
21002,1,"Bankomat","ZABA Poslovnica","0-24 h",43000,"Bjelovar","Frana Supila",2,"16° 50' 38""","45° 53' 56"""
24002,4,"Uređaj za zaprimanje naloga","ZABA Poslovnica","u radno vrijeme objekta",43000,"Bjelovar","Frana Supila",2,"16° 50' 38""","45° 53' 56"""
25114,2,"Dnevno-noćni trezor","ZABA Poslovnica","0-24 h",43000,"Bjelovar","Frana Supila",2,"16° 50' 38""","45° 53' 56"""
21195,1,"Bankomat","Remuš d.o.o.","0-24 h",43000,"Bjelovar","J. Haulika",24,"16° 50' 34""","45° 53' 47"""
21197,1,"Bankomat","Kaufland Hrvatska k.d.","u radno vrijeme objekta",43000,"Bjelovar","Vlahe Paljetka",4,"16° 51' 7""","45° 54' 11"""
21198,1,"Bankomat","Vrtni centar Pisačić","0-24 h",10380,"Blaževdol","Blaževdol","BB","16° 14' 5""","45° 55' 52"""
21199,1,"Bankomat","Zajed.trg.obrt ""Michael""","0-24 h",21420,"Bol na Braču","Riva","BB","16° 39' 30""","43° 15' 44"""
21200,1,"Bankomat","Poslovni prostor","0-24 h",10020,"Botinec","Šenoine Branke",2,"15° 56' 11""","45° 45' 22"""
21201,1,"Bankomat","Poslovni prostor","0-24 h",10291,"Brdovec","I. Gregorevića",81,"15° 45' 24""","45° 52' 4"""
21202,1,"Bankomat","Dom zdravlja - Samobor","0-24 h",10432,"Bregana","Samoborska",12,"15° 41' 17""","45° 50' 23"""
21203,1,"Bankomat","TZ Brela","0-24 h",21322,"Brela","Biokovska",1,"16° 55' 51""","43° 22' 7"""
21204,1,"Bankomat","Mandić Pharm","0-24 h",10257,"Brezovica","Brezovečka c.",123,"15° 54' 46""","45° 43' 37"""
21205,1,"Bankomat","Merkator ASP","0-24 h",49284,"Budinščina","Budinščina","7/P","16° 12' 20""","46° 7' 43"""
21207,1,"Bankomat","Mani d.o.o.","0-24 h",10010,"Buzin","Bani",75,"15° 59' 60""","45° 44' 42"""
21209,1,"Bankomat","Trgovina Trend","0-24 h",42208,"Cestica","Varaždinska",27,"16° 7' 45""","46° 22' 4"""
21210,1,"Bankomat","FINA","0-24 h",51557,"Cres","Peškera",8,"14° 24' 39""","44° 57' 32"""
21211,1,"Bankomat","Autotrans d.o.o.","0-24 h",51260,"Crikvenica","Nike Veljačića",3,"14° 41' 33""","45° 10' 22"""
21212,1,"Bankomat","Ljekarna - Fudurić,Žužić,Boras","0-24 h",51260,"Crikvenica","Trg S. Radića",1,"14° 41' 26""","45° 10' 23"""
21003,1,"Bankomat","ZABA Poslovnica","0-24 h",51260,"Crikvenica","Vinodolska",6,"14° 41' 30""","45° 10' 25"""
21004,1,"Bankomat","ZABA Poslovnica","0-24 h",40000,"Čakovec","Kralja Tomislava",5,"16° 26' 12""","46° 23' 25"""
24003,4,"Uređaj za zaprimanje naloga","ZABA Poslovnica","u radno vrijeme objekta",40000,"Čakovec","Kralja Tomislava",5,"16° 26' 12""","46° 23' 25"""
21214,1,"Bankomat","Kaufland Hrvatska k.d.","u radno vrijeme objekta",40000,"Čakovec","Obrtnička",1,"16° 24' 52""","46° 23' 18"""
21215,1,"Bankomat","Betex","0-24 h",40000,"Čakovec","T. Goričanca",1,"16° 26' 36""","46° 22' 47"""
21005,1,"Bankomat","ZABA Poslovnica","0-24 h",40000,"Čakovec","Ulica Matice Hrvatske",10,"16° 26' 7""","46° 23' 20"""
22001,2,"Dnevno-noćni trezor","ZABA Poslovnica","0-24 h",40000,"Čakovec","Ulica Matice Hrvatske",10,"16° 26' 7""","46° 23' 20"""
21216,1,"Bankomat","Knjižara i papirnica ""Dani""","0-24 h",43240,"Čazma","Kralja Tomislava","BB","16° 36' 60""","45° 44' 56"""
21217,1,"Bankomat","Optika Oko","0-24 h",31431,"Čepin","K. Tomislava","1/A","18° 34' 35""","45° 31' 20"""
21219,1,"Bankomat","Zračna luka Dubrovnik","0-24 h",20213,"Čilipi","Zračna luka Dubrovnik",,"18° 15' 47""","42° 33' 40"""
21222,1,"Bankomat","Mercator-H. d.o.o.","0-24 h",35425,"Davor","J.J.Strossmayera",2,"17° 30' 53""","45° 6' 51"""
21223,1,"Bankomat","PZ Desiničanka","0-24 h",49216,"Desinić","Sv. Jurja",9,"15° 40' 5""","46° 8' 55"""
21224,1,"Bankomat","Općina Bistra","0-24 h",10298,"Donja Bistra","Stubička",509,"15° 51' 11""","45° 54' 12"""
21006,1,"Bankomat","ZABA Poslovnica","0-24 h",49240,"Donja Stubica","Toplička cesta",10,"15° 58' 14""","45° 58' 50"""
22002,2,"Dnevno-noćni trezor","ZABA Poslovnica","0-24 h",49240,"Donja Stubica","Toplička cesta",10,"15° 58' 14""","45° 58' 50"""
24004,4,"Uređaj za zaprimanje naloga","ZABA Poslovnica","u radno vrijeme objekta",49240,"Donja Stubica","Toplička cesta",10,"15° 58' 14""","45° 58' 50"""
21225,1,"Bankomat","IB Ivančan d.o.o.","0-24 h",10382,"Donja Zelina","Sv. Nikole",1,"16° 13' 45""","45° 54' 28"""
21226,1,"Bankomat","Ljekarna Delić","0-24 h",10253,"Donji Dragonožec","Donjodragonoška cesta",30,"15° 56' 42""","45° 39' 42"""
21227,1,"Bankomat","BILLA d.o.o.","u radno vrijeme objekta",31540,"Donji Miholjac","Kolodvorska","BB","18° 10' 1""","45° 45' 27"""
21228,1,"Bankomat","TO ""Nina""","0-24 h",22320,"Drniš","142. brigade",22,"16° 9' 28""","43° 51' 37"""
21229,1,"Bankomat","Ugostiteljski obrt OZ","0-24 h",21333,"Drvenik","Donja vala","BB","17° 14' 57""","43° 9' 17"""
21007,1,"Bankomat","ZABA Poslovnica","0-24 h",20000,"Dubrovnik","Gundulićeva poljana","BB","18° 6' 35""","42° 38' 25"""
22003,2,"Dnevno-noćni trezor","ZABA Poslovnica","0-24 h",20000,"Dubrovnik","Gundulićeva poljana","BB","18° 6' 35""","42° 38' 25"""
21232,1,"Bankomat","Ljekarne Dubrovnik","0-24 h",20000,"Dubrovnik","Placa",4,"18° 6' 37""","42° 38' 28"""
21233,1,"Bankomat","Jadrolinija","0-24 h",20000,"Dubrovnik","S. Radića",40,"18° 5' 13""","42° 39' 29"""
21234,1,"Bankomat","Intertrgovina d.o.o.","0-24 h",47250,"Duga Resa","Jozefinska c.",10,"15° 30' 0""","45° 26' 60"""
21235,1,"Bankomat","FINA","0-24 h",10370,"Dugo Selo","J. Zorića",17,"16° 14' 10""","45° 48' 20"""
21236,1,"Bankomat","BILLA d.o.o.","0-24 h",10370,"Dugo Selo","J. Zorića","BB","16° 14' 34""","45° 48' 18"""
21009,1,"Bankomat","ZABA poslovnica","0-24 h",10370,"Dugo Selo","Kolodvorska",1,"16° 14' 2""","45° 48' 18"""
21010,1,"Bankomat","ZABA poslovnica","0-24 h",10370,"Dugo Selo","Kolodvorska",1,"16° 14' 2""","45° 48' 18"""
22004,2,"Dnevno-noćni trezor","ZABA poslovnica","0-24 h",10370,"Dugo Selo","Kolodvorska",1,"16° 14' 2""","45° 48' 18"""
24006,4,"Uređaj za zaprimanje naloga","ZABA poslovnica","u radno vrijeme objekta",10370,"Dugo Selo","Kolodvorska",1,"16° 14' 2""","45° 48' 18"""
21237,1,"Bankomat","METRO Cash & Carry d.o.o.","u radno vrijeme objekta",21204,"Dugopolje","Dugopolje","BB","16° 34' 39""","43° 35' 30"""
21238,1,"Bankomat","Lesnina-H d.o.o.","u radno vrijeme objekta",21204,"Dugopolje","Sv. Leopolda Mandića",2,"16° 34' 26""","43° 35' 13"""
21239,1,"Bankomat","BILLA d.o.o.","u radno vrijeme objekta",31400,"Đakovo","Bana J. Jelačića","BB","18° 24' 37""","45° 18' 38"""
21011,1,"Bankomat","ZABA Poslovnica","0-24 h",31400,"Đakovo","Pape Ivana Pavla II",9,"18° 24' 46""","45° 18' 35"""
24007,4,"Uređaj za zaprimanje naloga","ZABA Poslovnica","u radno vrijeme objekta",31400,"Đakovo","Pape Ivana Pavla II",9,"18° 24' 46""","45° 18' 35"""
22005,2,"Dnevno-noćni trezor","ZABA Poslovnica","0-24 h",31400,"Đakovo","Pape Ivana Pavla II",9,"18° 24' 46""","45° 18' 35"""
21241,1,"Bankomat","Mercator-H. d.o.o.","u radno vrijeme objekta",31400,"Đakovo","V. Nazora",6,"18° 25' 0""","45° 19' 12"""
21012,1,"Bankomat","ZABA Poslovnica","0-24 h",48350,"Đurđevac","Stjepana Radića",13,"17° 4' 6""","46° 2' 24"""
21013,1,"Bankomat","ZABA Poslovnica","0-24 h",48350,"Đurđevac","Stjepana Radića",13,"17° 4' 6""","46° 2' 24"""
21014,1,"Bankomat","ZABA Poslovnica","0-24 h",48350,"Đurđevac","Stjepana Radića",13,"17° 4' 6""","46° 2' 24"""
22006,2,"Dnevno-noćni trezor","ZABA Poslovnica","0-24 h",48350,"Đurđevac","Stjepana Radića",13,"17° 4' 6""","46° 2' 24"""
24008,4,"Uređaj za zaprimanje naloga","ZABA Poslovnica","0-24 h",48350,"Đurđevac","Stjepana Radića",13,"17° 4' 6""","46° 2' 24"""
21242,1,"Bankomat","Općina Đurmanec","0-24 h",49225,"Đurmanec","Đurmanec",137,"15° 50' 23""","46° 11' 47"""
21244,1,"Bankomat","Bi Village","0-24 h",52212,"Fažana","Dragonja",115,"13° 48' 35""","44° 55' 2"""
21245,1,"Bankomat","Općina Ferdinandovac","0-24 h",48356,"Ferdinandovac","Trg slobode",28,"17° 11' 28""","46° 3' 31"""
21247,1,"Bankomat","TZ Funtana","0-24 h",52452,"Funtana","B. Borisia",2,"13° 36' 19""","45° 10' 27"""
21248,1,"Bankomat","KONZUM","0-24 h",43280,"Garešnica","Andrije Lustiga - Dade",19,"16° 56' 36""","45° 34' 29"""
21249,1,"Bankomat","FINA","0-24 h",44400,"Glina","S. i A. Radića","BB","16° 5' 24""","45° 20' 21"""
21251,1,"Bankomat","Općina Gornja Stubbica","0-24 h",49245,"Gornja Stubica","Trg Sv. Jurja",2,"16° 1' 7""","45° 58' 29"""
21252,1,"Bankomat","Općina Gornji Kneginec","0-24 h",42204,"Gornji Kneginec","Trg Hrvatski branitelja","BB","16° 22' 41""","46° 15' 13"""
21015,1,"Bankomat","ZABA Poslovnica","0-24 h",53000,"Gospić","Kaniška",9,"15° 22' 29""","44° 32' 44"""
24009,4,"Uređaj za zaprimanje naloga","ZABA Poslovnica","0-24 h",53000,"Gospić","Kaniška",9,"15° 22' 29""","44° 32' 44"""
22007,2,"Dnevno-noćni trezor","ZABA Poslovnica","0-24 h",53000,"Gospić","Kaniška",9,"15° 22' 29""","44° 32' 44"""
21255,1,"Bankomat","Patričar d.o.o.","0-24 h",32260,"Gunja","V. Nazora",128,"18° 49' 31""","44° 53' 15"""
21256,1,"Bankomat","FINA","0-24 h",44430,"Hrvatska Kostajnica","V. Nazora",9,"16° 32' 32""","45° 13' 37"""
21017,1,"Bankomat","ZABA Poslovnica","0-24 h",49231,"Hum na Sutli","Hum na Sutli",139,"15° 42' 6""","46° 13' 20"""
21257,1,"Bankomat","Jadrolinija","0-24 h",21450,"Hvar","Riva","BB","16° 26' 44""","43° 9' 59"""
21258,1,"Bankomat","Profico d.o.o.","0-24 h",51414,"Ika","Primorska",2,"14° 16' 54""","45° 18' 24"""
21259,1,"Bankomat","BOSO d.o.o","0-24 h",32236,"Ilok","Trg Nikole Iločkog","12/a","19° 22' 43""","45° 13' 25"""
21260,1,"Bankomat","Studenac d.o.o.","0-24 h",21260,"Imotski","Put gaja","BB","17° 13' 18""","43° 26' 50"""
25397,1,"Bankomat","ZABA poslovnica","0-24 h",21260,"Imotski","Šetalište S. Radića",18,"17° 12' 56""","43° 26' 51"""
21261,1,"Bankomat","KTC d.o.o.","u radno vrijeme objekta",42240,"Ivanec","Ivanečko naselje","1/C","16° 8' 8""","46° 13' 53"""
21019,1,"Bankomat","ZABA Poslovnica","0-24 h",42240,"Ivanec","Mirka Maleza",1,"16° 7' 28""","46° 13' 26"""
21020,1,"Bankomat","ZABA Poslovnica","0-24 h",42240,"Ivanec","Mirka Maleza",1,"16° 7' 28""","46° 13' 26"""
22008,2,"Dnevno-noćni trezor","ZABA Poslovnica","0-24 h",42240,"Ivanec","Mirka Maleza",1,"16° 7' 28""","46° 13' 26"""
24010,4,"Uređaj za zaprimanje naloga","ZABA Poslovnica","u radno vrijeme objekta",42240,"Ivanec","Mirka Maleza",1,"16° 7' 28""","46° 13' 26"""
21262,1,"Bankomat","RK Ivanec","0-24 h",42240,"Ivanec","Trg hrvatskih Ivanovaca",1,"16° 7' 29""","46° 13' 27"""
21021,1,"Bankomat","ZABA Poslovnica (Croatia osiguranje d.d.)","0-24 h",10310,"Ivanić-Grad","Trg V. Nazora",7,"16° 23' 38""","45° 42' 14"""
21022,1,"Bankomat","ZABA Poslovnica","0-24 h",10310,"Ivanić-Grad","Trg V. Nazora",7,"16° 23' 38""","45° 42' 14"""
24011,4,"Uređaj za zaprimanje naloga","ZABA Poslovnica","u radno vrijeme objekta",10310,"Ivanić-Grad","Trg V. Nazora",7,"16° 23' 38""","45° 42' 14"""
21263,1,"Bankomat","Patričar d.o.o.","0-24 h",32281,"Ivankovo","Bošnjaci",2,"18° 41' 3""","45° 17' 18"""
21264,1,"Bankomat","Trgostil d.o.o.","0-24 h",10297,"Jakovlje","Trg A. Sixta",1,"15° 50' 41""","45° 56' 12"""
21265,1,"Bankomat","Općina Jažabet","0-24 h",42203,"Jalžabet","Trg braće Radić","BB","16° 28' 25""","46° 15' 33"""
21023,1,"Bankomat","ZABA Poslovnica","0-24 h",10450,"Jastrebarsko","Braće Kazića",7,"15° 39' 8""","45° 40' 23"""
21024,1,"Bankomat","ZABA Poslovnica","0-24 h",10450,"Jastrebarsko","Braće Kazića",7,"15° 39' 8""","45° 40' 23"""
24012,4,"Uređaj za zaprimanje naloga","ZABA Poslovnica","0-24 h",10450,"Jastrebarsko","Braće Kazića",7,"15° 39' 8""","45° 40' 23"""
22009,2,"Dnevno-noćni trezor","ZABA Poslovnica","0-24 h",10450,"Jastrebarsko","Braće Kazića",7,"15° 39' 8""","45° 40' 23"""
21266,1,"Bankomat","FINA","0-24 h",10450,"Jastrebarsko","V. Mačeka",15,"15° 39' 14""","45° 40' 31"""
21267,1,"Bankomat","Parfumerija Fani","0-24 h",21465,"Jelsa","Riva","BB","16° 41' 39""","43° 9' 42"""
21268,1,"Bankomat","Sloga d.o.o.","0-24 h",48361,"Kalinovac","Dravska",4,"17° 6' 54""","46° 1' 31"""
21270,1,"Bankomat","BILLA d.o.o.","0-24 h",47000,"Karlovac","Kralja Petra Krešimira IV","BB","15° 32' 53""","45° 28' 57"""
21025,1,"Bankomat","ZABA Poslovnica","0-24 h",47000,"Karlovac","Stjepana Radića",5,"15° 33' 15""","45° 29' 35"""
22010,2,"Dnevno-noćni trezor","ZABA Poslovnica","0-24 h",47000,"Karlovac","Stjepana Radića",5,"15° 33' 15""","45° 29' 35"""
24013,4,"Uređaj za zaprimanje naloga","ZABA Poslovnica","u radno vrijeme objekta",47000,"Karlovac","Stjepana Radića",5,"15° 33' 15""","45° 29' 35"""
21272,1,"Bankomat","Kaufland Hrvatska k.d.","u radno vrijeme objekta",47000,"Karlovac","Trg Josipa Broza",5,"15° 32' 45""","45° 29' 17"""
21273,1,"Bankomat","FINA","0-24 h",47000,"Karlovac","Trg M.Šuflaja","2/A","15° 32' 54""","45° 29' 34"""
21274,1,"Bankomat","Poslovni prostor","0-24 h",51215,"Kastav","Tometici","14/A","14° 20' 28""","45° 22' 14"""
21275,1,"Bankomat","STAR - JB d.o.o.","0-24 h",21215,"Kaštel Lukšić","Ulica dr. Franje Tuđmana","BB","16° 21' 50""","43° 33' 3"""
21276,1,"Bankomat","Mjenjčnica Šimac","0-24 h",21216,"Kaštel Stari","Obala kralja Tomislava",19,"16° 20' 25""","43° 32' 56"""
21277,1,"Bankomat","Coopservice d.o.o. - T.C.Kaštela","u radno vrijeme objekta",21212,"Kaštel Sućurac","Ulica dr. Franje Tuđmana",7,"16° 26' 57""","43° 32' 25"""
21026,1,"Bankomat","ZABA Poslovnica","0-24 h",49290,"Klanjec","Lijepe Naše",37,"15° 44' 30""","46° 2' 59"""
24014,4,"Uređaj za zaprimanje naloga","ZABA Poslovnica","u radno vrijeme objekta",49290,"Klanjec","Lijepe Naše",37,"15° 44' 30""","46° 2' 59"""
21278,1,"Bankomat","Barbara TO","0-24 h",42244,"Klenovnik","Klenovnik",9,"16° 4' 37""","46° 16' 13"""
21279,1,"Bankomat","Fresh d.o.o.","0-24 h",10450,"Klinča Sela","Karlovačka",9,"15° 44' 42""","45° 41' 34"""
21280,1,"Bankomat","Obrt Vajkan","0-24 h",10312,"Kloštar Ivanić","Kralja Tomislava",6,"16° 24' 58""","45° 44' 16"""
21281,1,"Bankomat","Sloga d.d.","0-24 h",48362,"Kloštar Podravski","Trg Sv. Obitelji","BB","17° 9' 23""","45° 59' 6"""
21282,1,"Bankomat","Ljekarne S Varda","0-24 h",22300,"Knin","Dinka Šimunovića",14,"16° 11' 33""","44° 2' 27"""
21027,1,"Bankomat","ZABA Poslovnica","0-24 h",49282,"Konjščina","Drage Božića",1,"16° 10' 41""","46° 3' 9"""
21283,1,"Bankomat","Trgonom","0-24 h",48000,"Koprivnica","Florijanski trg",14,"16° 49' 42""","46° 9' 51"""
21284,1,"Bankomat","KTC d.o.o.","u radno vrijeme objekta",48000,"Koprivnica","Ivana Česmičkog",15,"16° 50' 6""","46° 10' 51"""
21028,1,"Bankomat","ZABA Poslovnica","0-24 h",48000,"Koprivnica","Ivana Meštrovića","BB","16° 49' 15""","46° 9' 51"""
24015,4,"Uređaj za zaprimanje naloga","ZABA Poslovnica","u radno vrijeme objekta",48000,"Koprivnica","Ivana Meštrovića","BB","16° 49' 15""","46° 9' 51"""
21285,1,"Bankomat","BILLA d.o.o.","0-24 h",48000,"Koprivnica","Kolodvorska","BB","16° 49' 4""","46° 9' 50"""
21287,1,"Bankomat","FINA","0-24 h",20260,"Korčula","Ulica",31,"17° 8' 9""","42° 57' 38"""
21288,1,"Bankomat","Mini market Brlek","0-24 h",49294,"Kraljevec na Sutli","Kraljevec na Sutli",65,"15° 43' 34""","45° 59' 12"""
21289,1,"Bankomat","Brodokomerc d.o.o.","0-24 h",51262,"Kraljevica","Zrinjski trg","BB","14° 34' 14""","45° 16' 28"""
21290,1,"Bankomat","Strahinjčica trgovina d.o.o.","u radno vrijeme objekta",49000,"Krapina","F. Galovića",9,"15° 52' 27""","46° 9' 20"""
21029,1,"Bankomat","ZABA Poslovnica","0-24 h",49000,"Krapina","Gajeva",31,"15° 52' 26""","46° 9' 44"""
21030,1,"Bankomat","ZABA Poslovnica","0-24 h",49000,"Krapina","Gajeva",31,"15° 52' 26""","46° 9' 44"""
24016,4,"Uređaj za zaprimanje naloga","ZABA Poslovnica","u radno vrijeme objekta",49000,"Krapina","Gajeva",31,"15° 52' 26""","46° 9' 44"""
21291,1,"Bankomat","Poslončec","0-24 h",49000,"Krapina","Trg Ljudevita Gaja",17,"15° 52' 9""","46° 9' 50"""
21292,1,"Bankomat","Marijan Hruš","0-24 h",49217,"Krapinske toplice","Gajeva",5,"15° 50' 19""","46° 5' 31"""
21293,1,"Bankomat","Gaby Prom d.o.o.","0-24 h",10454,"Krašić","Krašić",97,"15° 30' 51""","45° 39' 21"""
21294,1,"Bankomat","FINA","0-24 h",10314,"Križ","Trg Sv. Križa",10,"16° 31' 14""","45° 39' 47"""
21295,1,"Bankomat","TŽT","0-24 h",48260,"Križevci","Baltićeva",1,"16° 32' 45""","46° 1' 34"""
21296,1,"Bankomat","BILLA d.o.o.","u radno vrijeme objekta",48260,"Križevci","Drage Grdenića",7,"16° 32' 34""","46° 1' 29"""
21297,1,"Bankomat","Rudar d.o.o.","0-24 h",48260,"Križevci","Trg A. Nemčića",1,"16° 32' 43""","46° 1' 29"""
21031,1,"Bankomat","ZABA Poslovnica","u radno vrijeme objekta",48260,"Križevci","Trg A. Nemčića",2,"16° 32' 42""","46° 1' 29"""
24017,4,"Uređaj za zaprimanje naloga","ZABA Poslovnica","u radno vrijeme objekta",48260,"Križevci","Trg A. Nemčića",2,"16° 32' 42""","46° 1' 29"""
21298,1,"Bankomat","Trgovački centar Krk","0-24 h",51500,"Krk","Sv. Bernardina","BB","14° 34' 16""","45° 1' 29"""
21299,1,"Bankomat","Općina Kumrovec","0-24 h",49295,"Kumrovec","Josipa Broza",12,"15° 40' 49""","46° 4' 35"""
21300,1,"Bankomat","Blic trgovina d.o.o.","0-24 h",10257,"Kupinečki Kraljevec","Kraljevački bregi",69,"15° 52' 24""","45° 40' 11"""
21301,1,"Bankomat","FINA","0-24 h",44320,"Kutina","Hrvatskih branitelja",4,"16° 46' 48""","45° 28' 59"""
21303,1,"Bankomat","Kutjevo d.d., Polop. Apoteka","0-24 h",34340,"Kutjevo","Republike Hrvatske",48,"17° 52' 57""","45° 25' 24"""
21305,1,"Bankomat","Benzinska postaja Laduč","0-24 h",10292,"Laduč","Zagrebačka",110,"15° 43' 15""","45° 52' 58"""
21306,1,"Bankomat","DVD Lekenik","0-24 h",44272,"Lekenik","Zagrebačka",36,"16° 12' 30""","45° 35' 12"""
21307,1,"Bankomat","TO ""Tommy""","0-24 h",42250,"Lepoglava","Hrvatskih Pavlina",12,"16° 2' 37""","46° 12' 25"""
21032,1,"Bankomat","ZABA Poslovnica","0-24 h",42250,"Lepoglava","Trg kralja Tomislava",1,"16° 3' 12""","46° 12' 36"""
21308,1,"Bankomat","Frizerski salon Mony","0-24 h",49253,"Lobor","Trg sv. Ane",22,"16° 3' 54""","46° 9' 2"""
21309,1,"Bankomat","L.Turist d.o.o. Hotel Park","0-24 h",51415,"Lovran","M. Tita",60,"14° 16' 37""","45° 17' 30"""
21311,1,"Bankomat","TO Trend","0-24 h",42230,"Ludbreg","Bana Jelačića",25,"16° 37' 19""","46° 14' 48"""
21312,1,"Bankomat","TP Varaždin d.o.o.","0-24 h",42230,"Ludbreg","Frankopanska","BB","16° 35' 60""","46° 15' 28"""
21033,1,"Bankomat","ZABA Poslovnica","0-24 h",42230,"Ludbreg","Trg Svetog Trojstva",20,"16° 37' 7""","46° 15' 1"""
24018,4,"Uređaj za zaprimanje naloga","ZABA Poslovnica","u radno vrijeme objekta",42230,"Ludbreg","Trg Svetog Trojstva",20,"16° 37' 7""","46° 15' 1"""
22011,2,"Dnevno-noćni trezor","ZABA Poslovnica","0-24 h",42230,"Ludbreg","Trg Svetog Trojstva",20,"16° 37' 7""","46° 15' 1"""
21313,1,"Bankomat","Samoposluga Fontana d.o.o.","0-24 h",42230,"Ludbreg","Trg Svetog Trojstva",7,"16° 37' 2""","46° 14' 60"""
21314,1,"Bankomat","Euro - Petrol d.o.o.","0-24 h",10340,"Luka (Vrbovec)","Luka",375,"16° 22' 55""","45° 52' 36"""
21315,1,"Bankomat","BAMT d.o.o.","0-24 h",49251,"Mače","Mače","BB","16° 2' 36""","46° 5' 34"""
21316,1,"Bankomat","TISAK d.d.","0-24 h",21300,"Makarska","Gračke skale","3/C","17° 1' 41""","43° 17' 24"""
21034,1,"Bankomat","ZABA Poslovnica","0-24 h",21300,"Makarska","Jadranska","1/A","17° 1' 5""","43° 17' 43"""
22012,2,"Dnevno-noćni trezor","ZABA Poslovnica","0-24 h",21300,"Makarska","Jadranska","1/A","17° 1' 5""","43° 17' 43"""
24019,4,"Uređaj za zaprimanje naloga","ZABA Poslovnica","0-24 h",21300,"Makarska","Jadranska","1/A","17° 1' 5""","43° 17' 43"""
21318,1,"Bankomat","VINA d.o.o.","0-24 h",21300,"Makarska","Šet. Dr. F. Tuđmana",1,"17° 0' 54""","43° 17' 44"""
21035,1,"Bankomat","ZABA Poslovnica","0-24 h",21300,"Makarska","Trg Tina Ujevića",1,"17° 1' 11""","43° 17' 40"""
21319,1,"Bankomat","FINA","0-24 h",51550,"Mali Lošinj","Braće I. i S. Vidulića",25,"14° 28' 17""","44° 31' 51"""
21320,1,"Bankomat","Trgovina Krk","0-24 h",51511,"Malinska (Krk)","Dubašljanska",80,"14° 31' 44""","45° 7' 30"""
21322,1,"Bankomat","Miracolo TO","u radno vrijeme objekta",52206,"Marčana","Pavićini",,"14° 0' 5""","44° 55' 47"""
21036,1,"Bankomat","ZABA poslovnica","0-24 h",49246,"Marija Bistrica","Trg pape Ivana Pavla II",34,"16° 7' 9""","46° 0' 15"""
21323,1,"Bankomat","Trgovački obrt Tea","0-24 h",42243,"Maruševec","Maruševec",18,"16° 11' 5""","46° 16' 51"""
21325,1,"Bankomat","Arena turist d.d. Pula","0-24 h",52203,"Medulin","AC Medulin",,"13° 55' 53""","44° 48' 47"""
21326,1,"Bankomat","Kamp Kažela","0-24 h",52203,"Medulin","Kažela","BB","13° 57' 18""","44° 48' 29"""
21327,1,"Bankomat","Popović","0-24 h",52203,"Medulin","Ulica SAD","116/A","13° 56' 5""","44° 49' 2"""
21329,1,"Bankomat","Čehulić d.o.o.","0-24 h",49252,"Mihovljan","Mihovljan","48/D","15° 58' 14""","46° 8' 2"""
21330,1,"Bankomat","T - com","0-24 h",21405,"Milna","Milna","BB","16° 26' 55""","43° 19' 39"""
21331,1,"Bankomat","Ninaj d.o.o.","0-24 h",40315,"Mursko Središće","Josipa Broza Tita",4,"16° 26' 22""","46° 30' 47"""
21333,1,"Bankomat","ACI, Marina Hramina","u radno vrijeme objekta",22243,"Murter","Marina Hramina",,"15° 35' 38""","43° 49' 37"""
21037,1,"Bankomat","ZABA Poslovnica","0-24 h",34500,"Našice","Vinogradska",6,"18° 5' 39""","45° 29' 22"""
24020,4,"Uređaj za zaprimanje naloga","ZABA Poslovnica","u radno vrijeme objekta",34500,"Našice","Vinogradska",6,"18° 5' 39""","45° 29' 22"""
21334,1,"Bankomat","Poslovni prostor","0-24 h",40305,"Nedelišće","Čakovečka",1,"16° 22' 46""","46° 22' 34"""
21336,1,"Bankomat","Kaufland Hrvatska k.d.","u radno vrijeme objekta",35400,"Nova Gradiška","M. Benkovića",34,"17° 23' 7""","45° 15' 11"""
21038,1,"Bankomat","ZABA Poslovnica","0-24 h",35400,"Nova Gradiška","Trg kralja Tomislava",13,"17° 22' 49""","45° 15' 35"""
21039,1,"Bankomat","ZABA Poslovnica","0-24 h",35400,"Nova Gradiška","Trg kralja Tomislava",13,"17° 22' 49""","45° 15' 35"""
24021,4,"Uređaj za zaprimanje naloga","ZABA Poslovnica","u radno vrijeme objekta",35400,"Nova Gradiška","Trg kralja Tomislava",13,"17° 22' 49""","45° 15' 35"""
22013,2,"Dnevno-noćni trezor","ZABA Poslovnica","0-24 h",35400,"Nova Gradiška","Trg kralja Tomislava",13,"17° 22' 49""","45° 15' 35"""
25151,1,"Bankomat","ZABA poslovnica","u radno vrijeme objekta",35400,"Nova Gradiška","Trg kralja Tomislava",13,"17° 22' 49""","45° 15' 35"""
21338,1,"Bankomat","Sunshine d.o.o.","0-24 h",53291,"Novalja","Braće Radića",8,"14° 52' 59""","44° 33' 24"""
21339,1,"Bankomat","Robna kuća NOVALIS","u radno vrijeme objekta",53291,"Novalja","Josipa Kunkere",8,"14° 53' 45""","44° 32' 51"""
21341,1,"Bankomat","Općina Novi Golubovec","0-24 h",49255,"Novi Golubovec","Novi Golubovec","34/B","15° 59' 0""","46° 10' 29"""
21040,1,"Bankomat","ZABA Poslovnica","0-24 h",42220,"Novi Marof","Trg Hrvatske državnosti",1,"16° 20' 5""","46° 10' 0"""
22014,2,"Dnevno-noćni trezor","ZABA Poslovnica","0-24 h",42220,"Novi Marof","Trg Hrvatske državnosti",1,"16° 20' 5""","46° 10' 0"""
24022,4,"Uređaj za zaprimanje naloga","ZABA Poslovnica","u radno vrijeme objekta",42220,"Novi Marof","Trg Hrvatske državnosti",1,"16° 20' 5""","46° 10' 0"""
21342,1,"Bankomat","Trgonom d.o.o.","0-24 h",42220,"Novi Marof","Varaždinska",59,"16° 20' 21""","46° 10' 40"""
21343,1,"Bankomat","AP Novi Marof","0-24 h",42220,"Novi Marof","Zagrebačka","BB","16° 20' 7""","46° 9' 56"""
21344,1,"Bankomat","MARIS TRADE","0-24 h",51250,"Novi Vinodolski","Hrvatskih branitelja","50/A","14° 47' 44""","45° 7' 28"""
21346,1,"Bankomat","KONZUM d.d.","0-24 h",52466,"Novigrad","Ulica gradskih vrata","21/A","13° 33' 43""","45° 18' 56"""
21347,1,"Bankomat","Presoflex","0-24 h",44330,"Novska","Zagrebačka",19,"16° 58' 43""","45° 20' 24"""
21348,1,"Bankomat","BILLA d.o.o.","0-24 h",47300,"Ogulin","P. Preradovića",8,"15° 13' 44""","45° 15' 56"""
21041,1,"Bankomat","ZABA Poslovnica","0-24 h",35430,"Okučani","Ante Starčevića",3,"17° 11' 58""","45° 15' 36"""
21349,1,"Bankomat","KONZUM d.d.","0-24 h",21310,"Omiš","Fošal","BB","16° 41' 30""","43° 26' 39"""
21042,1,"Bankomat","ZABA Poslovnica","0-24 h",21310,"Omiš","Vrilo","BB","16° 41' 10""","43° 26' 41"""
21353,1,"Bankomat","TISAK","0-24 h",51410,"Opatija","Maršala Tita",189,"14° 18' 22""","45° 20' 3"""
21354,1,"Bankomat","BILLA d.o.o.","0-24 h",51410,"Opatija","Nova cesta",68,"14° 18' 39""","45° 20' 37"""
21043,1,"Bankomat","ZABA Poslovnica","0-24 h",51410,"Opatija","Maršala Tita","69/II","14° 18' 35""","45° 20' 21"""
24023,4,"Uređaj za zaprimanje naloga","ZABA Poslovnica","u radno vrijeme objekta",51410,"Opatija","Maršala Tita","69/II","14° 18' 35""","45° 20' 21"""
22015,2,"Dnevno-noćni trezor","ZABA Poslovnica","0-24 h",51410,"Opatija","Maršala Tita","69/II","14° 18' 35""","45° 20' 21"""
21356,1,"Bankomat","BILLA d.o.o.","0-24 h",33515,"Orahovica","Kralja Zvonimira",167,"17° 53' 35""","45° 32' 25"""
21357,1,"Bankomat","KONZUM d.d.","0-24 h",20250,"Orebić","Stankovići","BB","17° 11' 39""","42° 58' 56"""
21044,1,"Bankomat","ZABA Poslovnica","0-24 h",49243,"Oroslavje","Oro trg",1,"15° 54' 52""","45° 59' 47"""
21048,1,"Bankomat","ZABA Poslovnica","0-24 h",31000,"Osijek","Trg Slobode",4,"18° 40' 43""","45° 33' 35"""
21049,1,"Bankomat","ZABA Poslovnica","0-24 h",31000,"Osijek","Trg Slobode",4,"18° 40' 43""","45° 33' 35"""
24025,4,"Uređaj za zaprimanje naloga","ZABA Poslovnica","0-24 h",31000,"Osijek","Trg Slobode",4,"18° 40' 43""","45° 33' 35"""
22017,2,"Dnevno-noćni trezor","ZABA Poslovnica","0-24 h",31000,"Osijek","Trg Slobode",4,"18° 40' 43""","45° 33' 35"""
24024,4,"Uređaj za zaprimanje naloga","ZABA Poslovnica","0-24 h",31000,"Osijek","Ribarska",4,"18° 40' 37""","45° 33' 45"""
22016,2,"Dnevno-noćni trezor","ZABA Poslovnica","0-24 h",31000,"Osijek","Ribarska",4,"18° 40' 37""","45° 33' 45"""
21046,1,"Bankomat","ZABA Poslovnica","0-24 h",31000,"Osijek","Ribarska",4,"18° 40' 37""","45° 33' 45"""
23001,3,"Uređaj za polog kovanica","ZABA poslovnica","0-24 h",31000,"Osijek","Ribarska",4,"18° 40' 37""","45° 33' 45"""
21045,1,"Bankomat","ZABA Poslovnica (Mercator centar)","u radno vrijeme objekta",31000,"Osijek","Gacka",10,"18° 40' 43""","45° 32' 41"""
21358,1,"Bankomat","Slavonijatekstil","0-24 h",31000,"Osijek","I. Tijardovića",4,"18° 43' 13""","45° 33' 23"""
21359,1,"Bankomat","Kaufland Hrvatska k.d.","u radno vrijeme objekta",31000,"Osijek","Josipa Reihl Kira",40,"18° 42' 36""","45° 32' 45"""
21360,1,"Bankomat","BILLA d.o.o.","0-24 h",31000,"Osijek","Kneza Trpimira",14,"18° 41' 35""","45° 33' 0"""
21361,1,"Bankomat","METRO Cash & Carry d.o.o.","u radno vrijeme objekta",31000,"Osijek","Kneza Trpimira",28,"18° 41' 28""","45° 32' 45"""
21362,1,"Bankomat","Caffe bar ""Monokl""","0-24 h",31000,"Osijek","S. Radića",56,"18° 40' 58""","45° 33' 14"""
21047,1,"Bankomat","ZABA Poslovnica","0-24 h",31000,"Osijek","Strossmayerova",1,"18° 40' 32""","45° 33' 43"""
21363,1,"Bankomat","BILLA d.o.o.","0-24 h",31000,"Osijek","Strossmayerova",167,"18° 39' 22""","45° 33' 50"""
21364,1,"Bankomat","SPAR","0-24 h",31000,"Osijek","Sv. Leopolda Mandića",7,"18° 40' 29""","45° 33' 11"""
21366,1,"Bankomat","Knjižara i papirnica ""Dani""","0-24 h",53220,"Otočac","Kralja Zvonimira",44,"15° 14' 28""","44° 52' 10"""
21367,1,"Bankomat","Caffe bar Tropic","0-24 h",47280,"Ozalj","Kurilovac","12/A","15° 28' 36""","45° 36' 47"""
21368,1,"Bankomat","Hotel Meridijan 15","0-24 h",23250,"Pag","A. Starčevića","BB","15° 3' 9""","44° 27' 9"""
21369,1,"Bankomat","FINA","0-24 h",23250,"Pag","Kralja Tomislava","BB","15° 3' 19""","44° 26' 35"""
21370,1,"Bankomat","PTO Stipe","0-24 h",23211,"Pakoštane","Ivana Meštrovića","BB","15° 30' 16""","43° 54' 34"""
21371,1,"Bankomat","Audio i video Ben Hur","0-24 h",34550,"Pakrac","Hrvatskih Velikana",17,"17° 11' 30""","45° 26' 20"""
21373,1,"Bankomat","Bungalows Malić d.d.","0-24 h",23231,"Petrčane","Punta Skala","BB","15° 8' 59""","44° 11' 34"""
21374,1,"Bankomat","Općina Petrijanec","0-24 h",42206,"Petrijanec","V. Nazora",157,"16° 13' 42""","46° 20' 45"""
21375,1,"Bankomat","PLANA","0-24 h",44250,"Petrinja","Vladimira Nazora",19,"16° 16' 37""","45° 26' 32"""
21376,1,"Bankomat","Pirovčanka d.o.o.","0-24 h",22213,"Pirovac","Obala k. Petra K. IV","BB","15° 39' 53""","43° 49' 8"""
21377,1,"Bankomat","Pekarnica Jamnica","0-24 h",10451,"Pisarovina","Trg S. Radića",4,"15° 51' 37""","45° 35' 12"""
21050,1,"Bankomat","ZABA Poslovnica","0-24 h",33405,"Pitomača","Gajeva",26,"17° 13' 56""","45° 56' 59"""
21378,1,"Bankomat","Poslovni prostor","0-24 h",34310,"Pleternica","Ivana Šveara",14,"17° 48' 7""","45° 17' 11"""
21379,1,"Bankomat","Foto Ivona","0-24 h",20340,"Ploče","V. Nazora",43,"17° 26' 14""","43° 3' 10"""
21380,1,"Bankomat","SOLO TURIST doo","0-24 h",21327,"Podgora","Ruđera Boškovića",3,"17° 4' 35""","43° 14' 30"""
21381,1,"Bankomat","Mesnica Vučevac","0-24 h",10090,"Podsused","Podsusedska al.",1,"15° 51' 11""","45° 48' 54"""
21382,1,"Bankomat","Zaprešićanka d.o.o.","0-24 h",10294,"Pojatno","Matije Gupca","91/A","15° 48' 7""","45° 54' 18"""
21383,1,"Bankomat","Poslovni prostor","0-24 h",44317,"Popovača","Trg grofova Erdedya","BB","16° 37' 38""","45° 34' 16"""
21051,1,"Bankomat","ZABA Poslovnica","0-24 h",52440,"Poreč","Obala M. Tita","BB","13° 35' 37""","45° 13' 37"""
21052,1,"Bankomat","ZABA Poslovnica","0-24 h",52440,"Poreč","Obala M. Tita","BB","13° 35' 37""","45° 13' 37"""
21053,1,"Bankomat","ZABA Poslovnica","0-24 h",52440,"Poreč","Obala M. Tita","BB","13° 35' 37""","45° 13' 37"""
24026,4,"Uređaj za zaprimanje naloga","ZABA Poslovnica","u radno vrijeme objekta",52440,"Poreč","Obala M. Tita","BB","13° 35' 37""","45° 13' 37"""
22018,2,"Dnevno-noćni trezor","ZABA Poslovnica","0-24 h",52440,"Poreč","Obala M. Tita","BB","13° 35' 37""","45° 13' 37"""
21385,1,"Bankomat","TD Portun Istra line","0-24 h",52440,"Poreč","Partizansko šetalište",2,"13° 35' 59""","45° 13' 37"""
21386,1,"Bankomat","Ljekarna Kremić","0-24 h",23242,"Posedarje","A. Starčevića",19,"15° 28' 30""","44° 12' 42"""
21387,1,"Bankomat","TO Lara","0-24 h",21410,"Postira","Porat","BB","16° 37' 41""","43° 22' 34"""
21388,1,"Bankomat","Poslovni prostor","0-24 h",49222,"Poznanovec","Zagorske brigade",10,"16° 1' 44""","46° 3' 1"""
21054,1,"Bankomat","ZABA Poslovnica","0-24 h",34000,"Požega","Trg Sv. Trojstva",20,"17° 40' 36""","45° 19' 51"""
24027,4,"Uređaj za zaprimanje naloga","ZABA Poslovnica","u radno vrijeme objekta",34000,"Požega","Trg Sv. Trojstva",20,"17° 40' 36""","45° 19' 51"""
25315,1,"Bankomat","ZABA poslovnica","0-24 h",34000,"Požega","Trg Sv. Trojstva",20,"17° 40' 36""","45° 19' 51"""
25317,2,"Dnevno-noćni trezor","ZABA poslovnica","0-24 h",34000,"Požega","Trg Sv. Trojstva",20,"17° 40' 36""","45° 19' 51"""
21389,1,"Bankomat","Panda - S","0-24 h",49218,"Pregrada","J. Leskovara","36/4","15° 45' 25""","46° 9' 12"""
21055,1,"Bankomat","ZABA Poslovnica","0-24 h",49218,"Pregrada","Stjepana Radića",14,"15° 44' 58""","46° 9' 45"""
24028,4,"Uređaj za zaprimanje naloga","ZABA Poslovnica","u radno vrijeme objekta",49218,"Pregrada","Stjepana Radića",14,"15° 44' 58""","46° 9' 45"""
21390,1,"Bankomat","Poslovni prostor","0-24 h",49218,"Pregrada","Trg Gospe Kunagorske",2,"15° 45' 3""","46° 9' 50"""
21391,1,"Bankomat","FINA","0-24 h",40323,"Prelog","Glavna",29,"16° 36' 39""","46° 20' 15"""
21392,1,"Bankomat","Navigator","0-24 h",52100,"Premantura","Selo","8/B","13° 54' 36""","44° 48' 5"""
21393,1,"Bankomat","AB Petrol","0-24 h",10291,"Prigorje brdovečko","Zagrebačka",27,"15° 44' 10""","45° 52' 41"""
21394,1,"Bankomat","KONZUM d.d.","0-24 h",22202,"Primošten","Franje Tuđmana",20,"15° 55' 27""","43° 35' 18"""
21395,1,"Bankomat","Mustać","0-24 h",23233,"Privlaka","Privlaka",427,"15° 7' 9""","44° 15' 45"""
21396,1,"Bankomat","T A Raj - Milan Rajčević","0-24 h",21412,"Pučišća","Porat","BB","16° 44' 12""","43° 20' 51"""
21399,1,"Bankomat","Bivio Istra","0-24 h",52100,"Pula","Jeretova",23,"13° 49' 57""","44° 51' 41"""
21400,1,"Bankomat","Kaufland Hrvatska k.d.","u radno vrijeme objekta",52100,"Pula","Jurja Žakna",3,"13° 51' 48""","44° 52' 44"""
21056,1,"Bankomat","ZABA Poslovnica","0-24 h",52100,"Pula","Matka Laginje",1,"13° 50' 52""","44° 52' 5"""
21057,1,"Bankomat","ZABA Poslovnica","0-24 h",52100,"Pula","Matka Laginje",1,"13° 50' 52""","44° 52' 5"""
24029,4,"Uređaj za zaprimanje naloga","ZABA Poslovnica","u radno vrijeme objekta",52100,"Pula","Matka Laginje",1,"13° 50' 52""","44° 52' 5"""
22019,2,"Dnevno-noćni trezor","ZABA Poslovnica","0-24 h",52100,"Pula","Matka Laginje",1,"13° 50' 52""","44° 52' 5"""
21401,1,"Bankomat","Puljanka d.o.o.","0-24 h",52100,"Pula","Prilaz Monte Cappellet",2,"13° 50' 53""","44° 51' 21"""
21402,1,"Bankomat","Jadroagent d.d.","0-24 h",52100,"Pula","Riva",14,"13° 50' 46""","44° 52' 21"""
21403,1,"Bankomat","BILLA d.o.o.","0-24 h",52100,"Pula","Santoriova",13,"13° 51' 37""","44° 52' 1"""
21404,1,"Bankomat","ELBA Elektromaterijal","0-24 h",52100,"Pula","Stiglicheva",20,"13° 51' 11""","44° 52' 21"""
21058,1,"Bankomat","ZABA Poslovnica","0-24 h",52100,"Pula","Šijanska cesta","1/B","13° 51' 58""","44° 52' 55"""
22020,2,"Dnevno-noćni trezor","ZABA Poslovnica","0-24 h",52100,"Pula","Šijanska cesta","1/B","13° 51' 58""","44° 52' 55"""
24030,4,"Uređaj za zaprimanje naloga","ZABA Poslovnica","u radno vrijeme objekta",52100,"Pula","Šijanska cesta","1/B","13° 51' 58""","44° 52' 55"""
21406,1,"Bankomat","Bivio Istra","0-24 h",52100,"Pula","Tomassinijeva",29,"13° 50' 19""","44° 51' 17"""
21407,1,"Bankomat","Brioni d.d.","u radno vrijeme objekta",52100,"Pula","Trg 1. istarske brigade",1,"13° 51' 26""","44° 52' 37"""
21408,1,"Bankomat","Zračna luka Pula d.o.o.","u radno vrijeme objekta",52100,"Pula","Valtursko polje",210,"13° 55' 19""","44° 53' 44"""
21409,1,"Bankomat","Histria","u radno vrijeme objekta",52100,"Pula","Verudella","BB","13° 50' 18""","44° 50' 11"""
21410,1,"Bankomat","Kvarner d.o.o.","0-24 h",51521,"Punat","Frankopanska",71,"14° 37' 43""","45° 0' 52"""
21411,1,"Bankomat","Gorice d.o.o.","0-24 h",10294,"Pušća Donja","Kumrovečka",105,"15° 46' 27""","45° 55' 3"""
21412,1,"Bankomat","Autotrans d.o.o.","0-24 h",51280,"Rab","Mali Palit","BB","14° 45' 33""","44° 45' 41"""
21413,1,"Bankomat","FINA","0-24 h",51280,"Rab","Šetalište Markantuna de Dominisa",3,"14° 45' 39""","44° 45' 28"""
21414,1,"Bankomat","Marimpex d.o.o.","0-24 h",10436,"Rakov potok","Rakov potok",124,"15° 47' 20""","45° 44' 4"""
21063,1,"Bankomat","ZABA Poslovnica","0-24 h",51000,"Rijeka","Aleksandra Manzoni",1,"14° 25' 59""","45° 19' 51"""
21059,1,"Bankomat","ZABA Poslovnica","0-24 h",51000,"Rijeka","Ante Starčevića",10,"14° 26' 40""","45° 19' 33"""
21060,1,"Bankomat","ZABA Poslovnica","0-24 h",51000,"Rijeka","Ante Starčevića",10,"14° 26' 40""","45° 19' 33"""
21061,1,"Bankomat","ZABA Poslovnica","0-24 h",51000,"Rijeka","Ante Starčevića",10,"14° 26' 40""","45° 19' 33"""
21062,1,"Bankomat","ZABA poslovnica","0-24 h",51000,"Rijeka","Ante Starčevića",10,"14° 26' 40""","45° 19' 33"""
24031,4,"Uređaj za zaprimanje naloga","ZABA Poslovnica","0-24 h",51000,"Rijeka","Ante Starčevića",10,"14° 26' 40""","45° 19' 33"""
22021,2,"Dnevno-noćni trezor","ZABA Poslovnica","0-24 h",51000,"Rijeka","Ante Starčevića",10,"14° 26' 40""","45° 19' 33"""
23002,3,"Uređaj za polog kovanica","ZABA poslovnica","0-24 h",51000,"Rijeka","Ante Starčevića",10,"14° 26' 40""","45° 19' 33"""
21415,1,"Bankomat","Brodokomerc d.o.o.","0-24 h",51000,"Rijeka","B. Vidasa",14,"14° 22' 55""","45° 20' 39"""
21416,1,"Bankomat","METRO Cash & Carry d.o.o.","u radno vrijeme objekta",51000,"Rijeka","Industrijska","BB","14° 29' 36""","45° 21' 1"""
21417,1,"Bankomat","Ruting HONDA","0-24 h",51000,"Rijeka","Franje Čandeka",44,"14° 24' 13""","45° 20' 25"""
21419,1,"Bankomat","Brodokomerc d.o.o.","0-24 h",51000,"Rijeka","Marohnićeva","5/A","14° 27' 54""","45° 19' 33"""
21420,1,"Bankomat","Mercator-H. d.o.o.","u radno vrijeme objekta",51000,"Rijeka","Osječka",71,"14° 25' 26""","45° 20' 43"""
21421,1,"Bankomat","BILLA d.o.o.","0-24 h",51000,"Rijeka","Osječka ulica",29,"14° 25' 43""","45° 20' 22"""
21422,1,"Bankomat","Rijekatekstil - Amadeus","0-24 h",51000,"Rijeka","Riva",6,"14° 26' 31""","45° 19' 35"""
21423,1,"Bankomat","Lesnina-H d.o.o.","u radno vrijeme objekta",51000,"Rijeka","Škrljevo, Kukljanovo","BB","14° 31' 25""","45° 19' 29"""
21418,1,"Bankomat","TOWER CENTER RIJEKA","u radno vrijeme objekta",51000,"Rijeka","Janka Polić Kamova",83,"14° 28' 12""","45° 19' 2"""
22048,2,"Dnevno-noćni trezor","TOWER CENTER RIJEKA","0-24 h",51000,"Rijeka","Janka Polić Kamova",83,"14° 28' 12""","45° 19' 2"""
21424,1,"Bankomat","OMV - Vrata Jadrana sjev.","0-24 h",51000,"Rijeka","Vrata Jadrana - sjever",,"14° 21' 12""","45° 21' 20"""
21426,1,"Bankomat","Kaufland Hrvatska k.d.","u radno vrijeme objekta",51000,"Rijeka","Zametska",44,"14° 23' 54""","45° 20' 27"""
21425,1,"Bankomat","Trgovačko poduzeće Putnik","0-24 h",51000,"Rijeka","Žabica","BB","14° 26' 14""","45° 19' 41"""
21427,1,"Bankomat","Lenio d.o.o.","0-24 h",22203,"Rogoznica","Miline",4,"15° 58' 1""","43° 31' 56"""
21065,1,"Bankomat","ZABA Poslovnica","0-24 h",52210,"Rovinj","Carrera",21,"13° 38' 8""","45° 4' 56"""
21066,1,"Bankomat","ZABA Poslovnica","0-24 h",52210,"Rovinj","Carrera",21,"13° 38' 8""","45° 4' 56"""
21067,1,"Bankomat","ZABA Poslovnica","0-24 h",52210,"Rovinj","Giordano Pagliaga",1,"13° 38' 15""","45° 5' 6"""
22022,2,"Dnevno-noćni trezor","ZABA Poslovnica","0-24 h",52210,"Rovinj","Giordano Pagliaga",1,"13° 38' 15""","45° 5' 6"""
24032,4,"Uređaj za zaprimanje naloga","ZABA Poslovnica","0-24 h",52210,"Rovinj","Giordano Pagliaga",1,"13° 38' 15""","45° 5' 6"""
25410,1,"Bankomat","ZABA poslovnica","0-24 h",52210,"Rovinj","Giordano Pagliaga",1,"13° 38' 15""","45° 5' 6"""
21428,1,"Bankomat","Konzum dd","0-24 h",52210,"Rovinj","Šetalište vijeća Europe","bb","13° 38' 11""","45° 4' 33"""
21429,1,"Bankomat","Konzum dd","0-24 h",52210,"Rovinj","Luje Adamovića","BB","13° 38' 19""","45° 4' 24"""
21430,1,"Bankomat","Maistra d.d., Hotel Eden","u radno vrijeme objekta",52210,"Rovinj","Luje Adamovića","BB","13° 38' 19""","45° 4' 24"""
21431,1,"Bankomat","Jadran trgovina d.o.o.","0-24 h",52210,"Rovinj","M. Vlačića","BB","13° 38' 5""","45° 6' 7"""
21432,1,"Bankomat","Matteo","0-24 h",52210,"Rovinj","Marco della Pietra",1,"13° 39' 8""","45° 4' 45"""
21433,1,"Bankomat","KONZUM d.d.","0-24 h",52210,"Rovinj","Marka Marulića",24,"13° 39' 6""","45° 4' 41"""
21434,1,"Bankomat","Maistra d.d.","u radno vrijeme objekta",52210,"Rovinj","Monsena","BB","13° 41' 9""","45° 3' 5"""
21435,1,"Bankomat","Maistra d.d.","u radno vrijeme objekta",52210,"Rovinj","Otok Katarina, Hotel Katarina",,"13° 37' 45""","45° 4' 38"""
21436,1,"Bankomat","Maistra d.d.","u radno vrijeme objekta",52210,"Rovinj","Otok Sv. Andrije, Hotel Istra",,"13° 37' 33""","45° 3' 34"""
21437,1,"Bankomat","Maistra d.d.","u radno vrijeme objekta",52210,"Rovinj","Polari","BB","13° 40' 7""","45° 3' 44"""
21438,1,"Bankomat","Maistra d.d.","u radno vrijeme objekta",52210,"Rovinj","Ronjgova","BB","13° 38' 15""","45° 4' 34"""
21439,1,"Bankomat","Maistra d.d.","u radno vrijeme objekta",52210,"Rovinj","TN Villas Rubin",,"13° 39' 3""","45° 4' 0"""
21440,1,"Bankomat","Maistra d.d.","0-24 h",52210,"Rovinj","Veštar","BB","13° 41' 7""","45° 2' 49"""
21441,1,"Bankomat","Mercator-H. d.o.o.","u radno vrijeme objekta",10430,"Samobor","Bleiburških žrtava 1945.",1,"15° 42' 43""","45° 48' 45"""
21442,1,"Bankomat","Kaufland Hrvatska k.d.","u radno vrijeme objekta",10430,"Samobor","Grada Wirgesa",,"15° 43' 20""","45° 48' 10"""
21443,1,"Bankomat","BEBER d.o.o.","0-24 h",10430,"Samobor","Svetonedjeljska",13,"15° 43' 21""","45° 47' 58"""
21068,1,"Bankomat","ZABA Poslovnica","0-24 h",10430,"Samobor","Šmidhenova",1,"15° 42' 32""","45° 48' 8"""
24033,4,"Uređaj za zaprimanje naloga","ZABA Poslovnica","u radno vrijeme objekta",10430,"Samobor","Šmidhenova",1,"15° 42' 32""","45° 48' 8"""
22023,2,"Dnevno-noćni trezor","ZABA Poslovnica","0-24 h",10430,"Samobor","Šmidhenova",1,"15° 42' 32""","45° 48' 8"""
21444,1,"Bankomat","Staklana Telišman","0-24 h",10430,"Samobor","Trg Matice hrvatske",1,"15° 42' 42""","45° 48' 8"""
21445,1,"Bankomat","Brodomerkur d.o.o.","0-24 h",51266,"Selce","Šetalište I. Jelčića","BB","14° 43' 11""","45° 9' 19"""
21446,1,"Bankomat","Autotrans Rijeka d.o.o.","0-24 h",53270,"Senj","Kralja Zvonimira",8,"14° 54' 4""","44° 59' 23"""
21447,1,"Bankomat","Trgovački centar Sesvete","0-24 h",10360,"Sesvete","Kašinska",9,"16° 6' 38""","45° 49' 43"""
21448,1,"Bankomat","GETRO d.o.o.","u radno vrijeme objekta",10360,"Sesvete","Lj. Posavskog",5,"16° 6' 9""","45° 49' 14"""
21449,1,"Bankomat","Gromela ing. d.o.o.","0-24 h",10360,"Sesvete","Selčinska",14,"16° 6' 44""","45° 49' 59"""
21069,1,"Bankomat","ZABA Poslovnica","0-24 h",10360,"Sesvete","Trg D. Domjanića",6,"16° 6' 35""","45° 49' 37"""
21070,1,"Bankomat","ZABA Poslovnica","0-24 h",10360,"Sesvete","Trg D. Domjanića",6,"16° 6' 35""","45° 49' 37"""
21071,1,"Bankomat","ZABA Poslovnica","0-24 h",10360,"Sesvete","Trg D. Domjanića",6,"16° 6' 35""","45° 49' 37"""
21072,1,"Bankomat","ZABA Poslovnica","0-24 h",10360,"Sesvete","Trg D. Domjanića",6,"16° 6' 35""","45° 49' 37"""
22024,2,"Dnevno-noćni trezor","ZABA Poslovnica","0-24 h",10360,"Sesvete","Trg D. Domjanića",6,"16° 6' 35""","45° 49' 37"""
24034,4,"Uređaj za zaprimanje naloga","ZABA Poslovnica","0-24 h",10360,"Sesvete","Trg D. Domjanića",6,"16° 6' 35""","45° 49' 37"""
24035,4,"Uređaj za zaprimanje naloga","ZABA Poslovnica","u radno vrijeme objekta",10360,"Sesvete","Trg Lovre Matačića",11,"16° 6' 31""","45° 49' 53"""
21073,1,"Bankomat","ZABA Poslovnica","0-24 h",10360,"Sesvete","Trg Lovre Matačića",11,"16° 6' 31""","45° 49' 53"""
21074,1,"Bankomat","ZABA Poslovnica","0-24 h",10360,"Sesvete","Trg Lovre Matačića",11,"16° 6' 31""","45° 49' 53"""
21450,1,"Bankomat","Stridon market","u radno vrijeme objekta",10361,"Sesvetski Kraljevec","Dugoselska",102,"16° 11' 6""","45° 48' 50"""
21451,1,"Bankomat","ELEZ d.o.o.","0-24 h",10361,"Sesvetski Kraljevec","Dugoselska","33/A","16° 10' 25""","45° 49' 0"""
21452,1,"Bankomat","TA Antunović","0-24 h",10361,"Sesvetski Kraljevec","Kobiljačka",102,"16° 9' 47""","45° 49' 14"""
21453,1,"Bankomat","GETRO d.o.o.","u radno vrijeme objekta",21230,"Sinj","Buljana","BB","16° 38' 42""","43° 42' 1"""
21075,1,"Bankomat","ZABA Poslovnica","0-24 h",21230,"Sinj","Trg Franje Tuđmana","BB","16° 38' 18""","43° 42' 6"""
21454,1,"Bankomat","Marina dizajn","0-24 h",21230,"Sinj","Vrlička",48,"16° 38' 20""","43° 42' 16"""
21455,1,"Bankomat","Fero-term d.o.o.","0-24 h",44000,"Sisak","A. i S. Radića",8,"16° 22' 21""","45° 29' 10"""
21077,1,"Bankomat","ZABA Poslovnica","0-24 h",44000,"Sisak","Frane Krste Frankopana",10,"16° 22' 23""","45° 29' 28"""
24036,4,"Uređaj za zaprimanje naloga","ZABA Poslovnica","u radno vrijeme objekta",44000,"Sisak","Frane Krste Frankopana",10,"16° 22' 23""","45° 29' 28"""
25340,2,"Dnevno-noćni trezor","ZABA poslovnica","0-24 h",44000,"Sisak","Frane Krste Frankopana",10,"16° 22' 23""","45° 29' 28"""
25341,4,"Uređaj za zaprimanje naloga","ZABA poslovnica","0-24 h",44000,"Sisak","Frane Krste Frankopana",10,"16° 22' 23""","45° 29' 28"""
21459,1,"Bankomat","SPAR","u radno vrijeme objekta",44000,"Sisak","Ivana Fistrovića",25,"16° 22' 41""","45° 28' 58"""
21456,1,"Bankomat","Alen plus d.o.o.","0-24 h",44000,"Sisak","J. J. Strossmayera",74,"16° 22' 4""","45° 28' 36"""
21457,1,"Bankomat","BILLA d.o.o.","0-24 h",44000,"Sisak","Marijana Cvetkovića","BB","16° 23' 7""","45° 27' 37"""
21458,1,"Bankomat","KONZUM d.d.","0-24 h",44000,"Sisak","Petrinjska","BB","16° 22' 21""","45° 27' 28"""
21460,1,"Bankomat","Kaufland Hrvatska k.d.","u radno vrijeme objekta",44000,"Sisak","Zagrebačka",49,"16° 21' 59""","45° 29' 45"""
21461,1,"Bankomat","GETRO d.o.o.","u radno vrijeme objekta",44000,"Sisak","Zagrebačka ulica",47,"16° 21' 17""","45° 29' 49"""
21462,1,"Bankomat","Konoba Mate","0-24 h",22222,"Skradin","Obala P. Šubića",6,"15° 55' 26""","43° 48' 59"""
21463,1,"Bankomat","FINA","0-24 h",33520,"Slatina","V. Nazora",1,"17° 42' 4""","45° 42' 9"""
21464,1,"Bankomat","Poljoprivredna ljekarna","0-24 h",35000,"Slavonski Brod","Andrije Štampara",27,"18° 1' 26""","45° 9' 18"""
24039,4,"Uređaj za zaprimanje naloga","ZABA Poslovnica","u radno vrijeme objekta",35000,"Slavonski Brod","Trg I. B. Mažuranić",1,"18° 0' 45""","45° 9' 18"""
21079,1,"Bankomat","ZABA Poslovnica","0-24 h",35000,"Slavonski Brod","Trg I. B. Mažuranić",1,"18° 0' 45""","45° 9' 18"""
21466,1,"Bankomat","Kaufland Hrvatska k.d.","u radno vrijeme objekta",35000,"Slavonski Brod","Naselje Slavonija II",5,"18° 1' 16""","45° 9' 42"""
21467,1,"Bankomat","OBI","0-24 h",35000,"Slavonski Brod","Osječka",284,"18° 3' 9""","45° 10' 27"""
21468,1,"Bankomat","BILLA d.o.o.","0-24 h",35000,"Slavonski Brod","Petra Svačića",2,"18° 0' 28""","45° 9' 46"""
24038,4,"Uređaj za zaprimanje naloga","ZABA Poslovnica","0-24 h",35000,"Slavonski Brod","Stjepana pl. Horvata",23,"18° 1' 14""","45° 9' 18"""
22026,2,"Dnevno-noćni trezor","ZABA Poslovnica","0-24 h",35000,"Slavonski Brod","Stjepana pl. Horvata",23,"18° 1' 14""","45° 9' 18"""
21078,1,"Bankomat","ZABA Poslovnica","0-24 h",35000,"Slavonski Brod","Stjepana pl. Horvata",23,"18° 1' 14""","45° 9' 18"""
21469,1,"Bankomat","Mercator-H. d.o.o.","u radno vrijeme objekta",21210,"Solin","Matoševa",10,"16° 29' 25""","43° 31' 49"""
21470,1,"Bankomat","Ljekarna Jakus","0-24 h",21210,"Solin","Zvonimirova",75,"16° 29' 21""","43° 32' 13"""
21471,1,"Bankomat","AB Petrol","0-24 h",10373,"Sop (Ivanja Reka)","Selska cesta",19,"16° 8' 48""","45° 47' 21"""
21472,1,"Bankomat","Kaufland Hrvatska k.d.","u radno vrijeme objekta",21000,"Split","Boktuljin put","BB","16° 28' 2""","43° 31' 12"""
22028,2,"Dnevno-noćni trezor","ZABA Poslovnica","0-24 h",21000,"Split","Ivana Gundulića","26/A","16° 26' 21""","43° 30' 50"""
24040,4,"Uređaj za zaprimanje naloga","ZABA Poslovnica","0-24 h",21000,"Split","Ivana Gundulića","26/A","16° 26' 21""","43° 30' 50"""
21082,1,"Bankomat","ZABA Poslovnica","0-24 h",21000,"Split","Ivana Gundulića","26/A","16° 26' 21""","43° 30' 50"""
21083,1,"Bankomat","ZABA Poslovnica","0-24 h",21000,"Split","Ivana Gundulića","26/A","16° 26' 21""","43° 30' 50"""
21084,1,"Bankomat","ZABA Poslovnica","0-24 h",21000,"Split","Ivana Gundulića","26/A","16° 26' 21""","43° 30' 50"""
21081,1,"Bankomat","ZABA Poslovnica","0-24 h",21000,"Split","Domovinskog rata",30,"16° 26' 41""","43° 30' 57"""
22027,2,"Dnevno-noćni trezor","ZABA Poslovnica","0-24 h",21000,"Split","Domovinskog rata",30,"16° 26' 41""","43° 30' 57"""
25167,1,"Bankomat","ZABA poslovnica","0-24 h",21000,"Split","Domovinskog rata",30,"16° 26' 41""","43° 30' 57"""
25169,3,"Uređaj za polog kovanica","ZABA poslovnica","0-24 h",21000,"Split","Domovinskog rata",30,"16° 26' 41""","43° 30' 57"""
25246,4,"Uređaj za zaprimanje naloga","ZABA poslovnica","0-24 h",21000,"Split","Domovinskog rata",30,"16° 26' 41""","43° 30' 57"""
21473,1,"Bankomat","Ljekarna Grbavac","0-24 h",21000,"Split","Dubrovačka",57,"16° 26' 59""","43° 31' 6"""
21474,1,"Bankomat","Trajektna luka Split","0-24 h",21000,"Split","Gat Sv. Duje",1,"16° 26' 33""","43° 30' 11"""
21475,1,"Bankomat","Zračna luka Split","u radno vrijeme objekta",21000,"Split","Kaštela","BB","16° 17' 53""","43° 32' 14"""
22029,2,"Dnevno-noćni trezor","ZABA Poslovnica","0-24 h",21000,"Split","Poljička cesta",14,"16° 27' 18""","43° 30' 17"""
24041,4,"Uređaj za zaprimanje naloga","ZABA Poslovnica","0-24 h",21000,"Split","Poljička cesta",14,"16° 27' 18""","43° 30' 17"""
21088,1,"Bankomat","ZABA Poslovnica","0-24 h",21000,"Split","Poljička cesta",14,"16° 27' 18""","43° 30' 17"""
21089,1,"Bankomat","ZABA Poslovnica","0-24 h",21000,"Split","Poljička cesta",14,"16° 27' 18""","43° 30' 17"""
21477,1,"Bankomat","Vukorepa mjenjač d.o.o.","0-24 h",21000,"Split","Mostarska, Zona",6,"16° 28' 6""","43° 31' 24"""
21478,1,"Bankomat","TC JOKER - Kerum","u radno vrijeme objekta",21000,"Split","Put Brodarice",6,"16° 26' 50""","43° 31' 14"""
21479,1,"Bankomat","Roko postole (Galerija Orijent)","0-24 h",21000,"Split","R. Boškovića",13,"16° 28' 3""","43° 30' 27"""
21085,1,"Bankomat","ZABA Poslovnica","0-24 h",21000,"Split","Obala hrvatskog narodnog preporoda",10,"16° 26' 18""","43° 30' 29"""
21086,1,"Bankomat","ZABA Poslovnica","0-24 h",21000,"Split","Obala hrvatskog narodnog preporoda",10,"16° 26' 18""","43° 30' 29"""
21087,1,"Bankomat","ZABA Poslovnica","0-24 h",21000,"Split","Obala hrvatskog narodnog preporoda",10,"16° 26' 18""","43° 30' 29"""
24084,4,"Uređaj za zaprimanje naloga","ZABA Poslovnica","0-24 h",21000,"Split","Obala hrvatskog narodnog preporoda",10,"16° 26' 18""","43° 30' 29"""
22053,2,"Dnevno-noćni trezor","ZABA Poslovnica","0-24 h",21000,"Split","Obala hrvatskog narodnog preporoda",10,"16° 26' 18""","43° 30' 29"""
21080,1,"Bankomat","ZABA poslovnica","0-24 h",21000,"Split","Borisa Papandopula",25,"16° 28' 30""","43° 30' 30"""
21480,1,"Bankomat","BURA-COLOR","0-24 h",21000,"Split","Zvonimirova",30,"16° 26' 58""","43° 30' 20"""
21481,1,"Bankomat","Mercator-H. d.o.o.","0-24 h",20207,"Srebreno","Vukovarska",46,"18° 11' 44""","42° 37' 25"""
21482,1,"Bankomat","Koma Maras d.o.o.","0-24 h",23244,"Starigrad-Paklenica","Trg T.Marasovića",7,"15° 26' 18""","44° 17' 44"""
21483,1,"Bankomat","Salon ""Lila""","0-24 h",10419,"Staro Čiče","Seljine brigade",02/01/15 12:00 AM,"16° 7' 0""","45° 41' 12"""
21484,1,"Bankomat","Ksilda d.o.o.","0-24 h",10434,"Strmec","Ul kralja Tomislava",2,"15° 47' 21""","45° 48' 39"""
21485,1,"Bankomat","HTP M. Gubec","0-24 h",49244,"Stubičke toplice","V. Šipeka",27,"15° 56' 5""","45° 58' 40"""
21486,1,"Bankomat","BILLA d.o.o.","0-24 h",33410,"Suhopolje","Kralja Tomislava",2,"17° 29' 49""","45° 48' 12"""
21487,1,"Bankomat","TO Vigma","0-24 h",23206,"Sukošan","XVIII ulica",1,"15° 18' 50""","44° 2' 42"""
21488,1,"Bankomat","U.O. Posavina","0-24 h",44210,"Sunja","Matije Gupca",11,"16° 34' 1""","45° 22' 7"""
21090,1,"Bankomat","ZABA Poslovnica","0-24 h",21400,"Supetar","Ulica hrvatskih velikana",62,"16° 33' 26""","43° 22' 57"""
21489,1,"Bankomat","FINA","0-24 h",21400,"Supetar","Vlačica",17,"16° 33' 1""","43° 23' 5"""
24042,4,"Uređaj za zaprimanje naloga","ZABA Poslovnica","0-24 h",10380,"Sveti Ivan Zelina","Braće Radića",1,"16° 14' 36""","45° 57' 36"""
22030,2,"Dnevno-noćni trezor","ZABA Poslovnica","0-24 h",10380,"Sveti Ivan Zelina","Braće Radića",1,"16° 14' 36""","45° 57' 36"""
21091,1,"Bankomat","ZABA Poslovnica","0-24 h",10380,"Sveti Ivan Zelina","Braće Radića",1,"16° 14' 36""","45° 57' 36"""
21092,1,"Bankomat","ZABA poslovnica","0-24 h",10380,"Sveti Ivan Zelina","Braće Radića",1,"16° 14' 36""","45° 57' 36"""
21093,1,"Bankomat","ZABA Poslovnica","0-24 h",10380,"Sveti Ivan Zelina","Braće Radića",1,"16° 14' 36""","45° 57' 36"""
21490,1,"Bankomat","Trgonom","0-24 h",10380,"Sv. Ivan Zelina","Vladimira Nazora",58,"16° 14' 50""","45° 57' 51"""
21491,1,"Bankomat","Jakšinić d.o.o.","0-24 h",48214,"Sv. Ivan Žabno","Trg K. Lukaša",20,"16° 36' 26""","45° 56' 56"""
21492,1,"Bankomat","Župni ured","0-24 h",49223,"Sv. Križ Začretje","Trg hrvatske kraljice Jelene",3,"15° 54' 24""","46° 4' 48"""
21493,1,"Bankomat","Ured javnog bilježnika","0-24 h",10431,"Sveta Nedelja","Trg A. Starčevića",2,"15° 46' 33""","45° 47' 49"""
21494,1,"Bankomat","Turistička zajednica","0-24 h",23207,"Sveti Filip i Jakov","Obala kralja Tomislava","BB","15° 25' 24""","43° 57' 44"""
21496,1,"Bankomat","JOLLY - JBS d.o.o.","0-24 h",22000,"Šibenik","A. Šupuka",10,"15° 53' 52""","43° 43' 52"""
22031,2,"Dnevno-noćni trezor","ZABA Poslovnica","0-24 h",22000,"Šibenik","Fra Jerolima Milete","BB","15° 53' 49""","43° 43' 58"""
24043,4,"Uređaj za zaprimanje naloga","ZABA Poslovnica","0-24 h",22000,"Šibenik","Fra Jerolima Milete","BB","15° 53' 49""","43° 43' 58"""
21094,1,"Bankomat","ZABA Poslovnica","0-24 h",22000,"Šibenik","Fra Jerolima Milete","BB","15° 53' 49""","43° 43' 58"""
21498,1,"Bankomat","TC Dalmare","u radno vrijeme objekta",22000,"Šibenik","Velimira Škorpika",23,"15° 54' 46""","43° 42' 42"""
21499,1,"Bankomat","Rina komerc d.o.o.","0-24 h",21430,"Grohote (Šolta)","Grohote",,"16° 17' 8""","43° 23' 29"""
21500,1,"Bankomat","Ljekarna Novoselac","0-24 h",33404,"Špišić Bukovica","Vladimira Nazora",63,"17° 18' 3""","45° 51' 44"""
21506,1,"Bankomat","Hotel Borovik","0-24 h",22240,"Tisno-Murter","Trg dr. Šime Vlašića",3,"15° 38' 28""","43° 47' 56"""
21507,1,"Bankomat","Nautička oprema","0-24 h",22212,"Tribunj","Ribarska",19,"15° 44' 36""","43° 45' 22"""
21508,1,"Bankomat","Poslovni prostor","0-24 h",21240,"Trilj","Trg bana Jelačića",1,"16° 43' 48""","43° 36' 59"""
21509,1,"Bankomat","Općina Trnovec","0-24 h",42202,"Trnovec Bartolovečki","Varaždinska",2,"16° 24' 60""","46° 17' 27"""
24044,4,"Uređaj za zaprimanje naloga","ZABA poslovnica","0-24 h",21220,"Trogir","Alojzija Stepinca",72,"16° 14' 48""","43° 31' 7"""
25335,1,"Bankomat","ZABA poslovnica","0-24 h",21220,"Trogir","Alojzija Stepinca",72,"16° 14' 48""","43° 31' 7"""
25373,2,"Dnevno-noćni trezor","ZABA poslovnica","0-24 h",21220,"Trogir","Alojzija Stepinca",72,"16° 14' 48""","43° 31' 7"""
21510,1,"Bankomat","Maća d.o.o.","0-24 h",21220,"Trogir","Kneza Trpimira",5,"16° 15' 12""","43° 31' 10"""
21512,1,"Bankomat","Studenac d.o.o.","0-24 h",21325,"Tučepi","Kraj","BB","17° 3' 36""","43° 15' 43"""
21513,1,"Bankomat","Marko trgovina i prijevoz d.o.o.","0-24 h",49215,"Tuhelj","Dubrovčan","BB","15° 46' 42""","46° 3' 44"""
21514,1,"Bankomat","Terme Tuhelj","0-24 h",49215,"Tuhelj (Tuheljske toplice)","Ljudevita Gaja",4,"15° 47' 19""","46° 4' 1"""
21515,1,"Bankomat","Ugost.obrt Artić","0-24 h",23273,"Ugljan - Preko","Artić",3,"15° 11' 39""","44° 4' 33"""
21516,1,"Bankomat","Istraturist Umag d.d.","0-24 h",52470,"Umag","AC Park Umag (Ladin gaj)",,"13° 32' 47""","45° 22' 2"""
21517,1,"Bankomat","Istra promet d.o.o.","0-24 h",52470,"Umag","J. Rakovca",15,"13° 31' 46""","45° 25' 53"""
24045,4,"Uređaj za zaprimanje naloga","ZABA Poslovnica","u radno vrijeme objekta",52470,"Umag","Jadranska",18,"13° 31' 32""","45° 26' 22"""
22032,2,"Dnevno-noćni trezor","ZABA Poslovnica","0-24 h",52470,"Umag","Jadranska",18,"13° 31' 32""","45° 26' 22"""
21096,1,"Bankomat","ZABA Poslovnica","0-24 h",52470,"Umag","Jadranska",18,"13° 31' 32""","45° 26' 22"""
21518,1,"Bankomat","Istraturist Umag d.d.","u radno vrijeme objekta",52470,"Umag","Katoro","BB","13° 31' 9""","45° 27' 44"""
21519,1,"Bankomat","Istraturist Umag d.d.","u radno vrijeme objekta",52470,"Umag","Recepcija TN Stella Maris",,"13° 31' 11""","45° 26' 60"""
21520,1,"Bankomat","MARKET NEVIO","0-24 h",52470,"Umag","Trgovačka",5,"13° 31' 18""","45° 26' 0"""
21522,1,"Bankomat","Lemo d.o.o.","0-24 h",52465,"Vabriga","Turistička",22,"13° 36' 58""","45° 17' 43"""
21523,1,"Bankomat","""MAJA"" obrt","0-24 h",31550,"Valpovo","Braće Radića","1/A","18° 25' 17""","45° 39' 32"""
21524,1,"Bankomat","KONZUM d.d.","0-24 h",42000,"Varaždin","B. Radića",8,"16° 19' 51""","46° 18' 20"""
21101,1,"Bankomat","ZABA Poslovnica","0-24 h",42000,"Varaždin","R. Boškovića",25,"16° 20' 38""","46° 18' 55"""
21102,1,"Bankomat","ZABA Poslovnica","0-24 h",42000,"Varaždin","R. Boškovića",25,"16° 20' 38""","46° 18' 55"""
24048,4,"Uređaj za zaprimanje naloga","ZABA Poslovnica","0-24 h",42000,"Varaždin","R. Boškovića",25,"16° 20' 38""","46° 18' 55"""
21525,1,"Bankomat","Baumax - x","0-24 h",42000,"Varaždin","Gospodarska","BB","16° 21' 8""","46° 17' 33"""
21526,1,"Bankomat","GETRO d.o.o.","u radno vrijeme objekta",42000,"Varaždin","Gospodarska ulica",60,"16° 21' 29""","46° 17' 20"""
21527,1,"Bankomat","Univerzal d.o.o.","0-24 h",42000,"Varaždin","J. Merlića",26,"16° 20' 48""","46° 18' 24"""
21529,1,"Bankomat","Kaufland Hrvatska k.d.","0-24 h",42000,"Varaždin","Koprivnička",17,"16° 20' 4""","46° 18' 54"""
21531,1,"Bankomat","Eurotrade","0-24 h",42000,"Varaždin","M. Krleže","1/A","16° 20' 17""","46° 17' 52"""
21532,1,"Bankomat","Trgovina Meteor","0-24 h",42000,"Varaždin","Optujska",12,"16° 19' 51""","46° 18' 45"""
21533,1,"Bankomat","TC Branka","0-24 h",42000,"Varaždin","Optujska",182,"16° 18' 37""","46° 19' 10"""
21100,1,"Bankomat","ZABA Poslovnica","0-24 h",42000,"Varaždin","P. Preradovića",17,"16° 20' 28""","46° 18' 27"""
24047,4,"Uređaj za zaprimanje naloga","ZABA Poslovnica","u radno vrijeme objekta",42000,"Varaždin","P. Preradovića",17,"16° 20' 28""","46° 18' 27"""
23003,3,"Uređaj za polog kovanica","ZABA poslovnica","0-24 h",42000,"Varaždin","Kapucinski trg",5,"16° 20' 10""","46° 18' 21"""
21097,1,"Bankomat","ZABA Poslovnica","0-24 h",42000,"Varaždin","Kapucinski trg",5,"16° 20' 10""","46° 18' 21"""
21098,1,"Bankomat","ZABA Poslovnica","0-24 h",42000,"Varaždin","Kapucinski trg",5,"16° 20' 10""","46° 18' 21"""
21099,1,"Bankomat","ZABA Poslovnica","0-24 h",42000,"Varaždin","Kapucinski trg",5,"16° 20' 10""","46° 18' 21"""
22033,2,"Dnevno-noćni trezor","ZABA Poslovnica","0-24 h",42000,"Varaždin","Kapucinski trg",5,"16° 20' 10""","46° 18' 21"""
24046,4,"Uređaj za zaprimanje naloga","ZABA Poslovnica","0-24 h",42000,"Varaždin","Kapucinski trg",5,"16° 20' 10""","46° 18' 21"""
21536,1,"Bankomat","KONZUM d.d.","0-24 h",42000,"Varaždin","Zagrebačka",10,"16° 20' 15""","46° 18' 14"""
21537,1,"Bankomat","BILLA d.o.o.","0-24 h",42000,"Varaždin","Zagrebačka","BB","16° 20' 33""","46° 17' 49"""
21538,1,"Bankomat","Hotel Minerva","0-24 h",42223,"Varaždinske toplice","Trg Slobode",1,"16° 25' 8""","46° 12' 41"""
21103,1,"Bankomat","ZABA Poslovnica","0-24 h",42223,"Varaždinske Toplice","Trg slobode",14,"16° 25' 30""","46° 12' 30"""
21539,1,"Bankomat","Supermarket Jukica","0-24 h",20270,"Vela Luka","Obala 2",22,"16° 42' 58""","42° 57' 53"""
21540,1,"Bankomat","Supermarket Buba","0-24 h",34330,"Velika","F. Tuđmana",32,"17° 39' 27""","45° 27' 43"""
21762,1,"Bankomat","ZABA Poslovnica","0-24 h",10410,"Velika Gorica","Trg S. Radića",3,"16° 3' 60""","45° 42' 43"""
21109,1,"Bankomat","ZABA Poslovnica","0-24 h",10410,"Velika Gorica","Trg S. Radića",3,"16° 3' 60""","45° 42' 43"""
21541,1,"Bankomat","Elektroservis Cerovski","0-24 h",10410,"Velika Gorica","J. Dobrile",25,"16° 3' 53""","45° 43' 19"""
22034,2,"Dnevno-noćni trezor","ZABA Poslovnica","0-24 h",10410,"Velika Gorica","Kralja Dmitra Zvonimira",5,"16° 4' 21""","45° 43' 2"""
21104,1,"Bankomat","ZABA Poslovnica","0-24 h",10410,"Velika Gorica","Kralja Dmitra Zvonimira",5,"16° 4' 21""","45° 43' 2"""
24049,4,"Uređaj za zaprimanje naloga","ZABA Poslovnica","0-24 h",10410,"Velika Gorica","Kralja Dmitra Zvonimira",5,"16° 4' 21""","45° 43' 2"""
21542,1,"Bankomat","Kaufland Hrvatska k.d.","u radno vrijeme objekta",10410,"Velika Gorica","Ljudevita Posavskog",51,"16° 3' 15""","45° 43' 6"""
21543,1,"Bankomat","BILLA d.o.o.","0-24 h",10410,"Velika Gorica","Matice hrvatske","BB","16° 3' 55""","45° 42' 47"""
21105,1,"Bankomat","ZABA Poslovnica","0-24 h",10410,"Velika Gorica","Pleso","BB","16° 3' 35""","45° 43' 55"""
21544,1,"Bankomat","Mercator-H. d.o.o.","0-24 h",10410,"Velika Gorica","Slavka Kolara",2,"16° 4' 17""","45° 42' 56"""
21106,1,"Bankomat","ZABA poslovnica","0-24 h",10410,"Velika Gorica","Trg kralja Tomislava",32,"16° 4' 38""","45° 42' 45"""
21107,1,"Bankomat","ZABA poslovnica","0-24 h",10410,"Velika Gorica","Trg kralja Tomislava",32,"16° 4' 38""","45° 42' 45"""
21108,1,"Bankomat","ZABA poslovnica","0-24 h",10410,"Velika Gorica","Trg kralja Tomislava",32,"16° 4' 38""","45° 42' 45"""
24050,4,"Uređaj za zaprimanje naloga","ZABA Poslovnica","u radno vrijeme objekta",10410,"Velika Gorica","Trg kralja Tomislava",32,"16° 4' 38""","45° 42' 45"""
25254,3,"Uređaj za polog kovanica","ZABA poslovnica","0-24 h",10410,"Velika Gorica","Trg kralja Tomislava",32,"16° 4' 38""","45° 42' 45"""
21545,1,"Bankomat","Mercator-H. d.o.o.","0-24 h",10410,"Velika Gorica","Trg S. Radića","BB","16° 4' 0""","45° 42' 45"""
21546,1,"Bankomat","Trgovački obrt NINA","0-24 h",10410,"Velika Gorica","Zagrebačka",20,"16° 4' 22""","45° 42' 55"""
21548,1,"Bankomat",,"0-24 h",10408,"Velika Mlaka","Napredak","BB","16° 1' 45""","45° 44' 12"""
21549,1,"Bankomat","Koving d.o.o.","0-24 h",43270,"Veliki Grđevac","Kralja Tomislava",14,"17° 2' 54""","45° 44' 59"""
21550,1,"Bankomat","Trgovina i usluge Radovanić","0-24 h",49214,"Veliko Trgovišće","Trg S. Tuđmana",5,"15° 50' 43""","46° 0' 13"""
21551,1,"Bankomat","Poljoprivredna apoteka","0-24 h",42205,"Vidovec","Trg Sv. Vida",29,"16° 14' 31""","46° 17' 9"""
21552,1,"Bankomat","Općina Vinica","0-24 h",42207,"Vinica","Vinička",5,"16° 9' 15""","46° 20' 22"""
21554,1,"Bankomat","BOSO","0-24 h",32100,"Vinkovci","H.D. Genschera",22,"18° 47' 52""","45° 16' 44"""
22035,2,"Dnevno-noćni trezor","ZABA Poslovnica","0-24 h",32100,"Vinkovci","Kralja Zvonimira",6,"18° 48' 21""","45° 17' 22"""
21110,1,"Bankomat","ZABA Poslovnica","0-24 h",32100,"Vinkovci","Kralja Zvonimira",6,"18° 48' 21""","45° 17' 22"""
24051,4,"Uređaj za zaprimanje naloga","ZABA Poslovnica","u radno vrijeme objekta",32100,"Vinkovci","Kralja Zvonimira",6,"18° 48' 21""","45° 17' 22"""
21555,1,"Bankomat","BILLA d.o.o.","0-24 h",32100,"Vinkovci","Kralja Zvonimira","BB","18° 48' 30""","45° 17' 43"""
21556,1,"Bankomat","Polet d.o.o.","0-24 h",32100,"Vinkovci","Trg kralja Tomislava",1,"18° 48' 7""","45° 17' 56"""
21557,1,"Bankomat","TO Mir d.o.o.","0-24 h",23234,"Vir","Autobusni kolodvor",,"15° 5' 10""","44° 18' 2"""
21558,1,"Bankomat","Sloga d.d.","0-24 h",48326,"Virje","Trg bana J. Jelačića",11,"16° 59' 44""","46° 3' 52"""
21559,1,"Bankomat","Kaufland Hrvatska k.d.","u radno vrijeme objekta",33000,"Virovitica","Sajmište",2,"17° 23' 51""","45° 49' 45"""
22036,2,"Dnevno-noćni trezor","ZABA Poslovnica","0-24 h",33000,"Virovitica","Trg dr. Franje Tuđmana","BB","17° 23' 14""","45° 49' 57"""
21111,1,"Bankomat","ZABA Poslovnica","0-24 h",33000,"Virovitica","Trg dr. Franje Tuđmana","BB","17° 23' 14""","45° 49' 57"""
21112,1,"Bankomat","ZABA Poslovnica","0-24 h",33000,"Virovitica","Trg dr. Franje Tuđmana","BB","17° 23' 14""","45° 49' 57"""
21113,1,"Bankomat","ZABA Poslovnica","0-24 h",33000,"Virovitica","Trg dr. Franje Tuđmana","BB","17° 23' 14""","45° 49' 57"""
24052,4,"Uređaj za zaprimanje naloga","ZABA Poslovnica","u radno vrijeme objekta",33000,"Virovitica","Trg dr. Franje Tuđmana","BB","17° 23' 14""","45° 49' 57"""
21560,1,"Bankomat","Caffe bar ""Gumenjak""","0-24 h",33000,"Virovitica","Trg fra B. Gerbera",8,"17° 23' 16""","45° 50' 8"""
21561,1,"Bankomat","FINA","0-24 h",21480,"Vis","Obala sv. Jurja",32,"16° 11' 1""","43° 3' 42"""
21564,1,"Bankomat","KONZUM d.d.","0-24 h",22211,"Vodice","Obala Jurićev Ive Cota",9,"15° 46' 34""","43° 45' 28"""
22037,2,"Dnevno-noćni trezor","ZABA Poslovnica","0-24 h",10340,"Vrbovec","Trg P. Zrinskog",8,"16° 25' 6""","45° 53' 6"""
21114,1,"Bankomat","ZABA Poslovnica","0-24 h",10340,"Vrbovec","Trg P. Zrinskog",8,"16° 25' 6""","45° 53' 6"""
21115,1,"Bankomat","ZABA Poslovnica","0-24 h",10340,"Vrbovec","Trg P. Zrinskog",8,"16° 25' 6""","45° 53' 6"""
24053,4,"Uređaj za zaprimanje naloga","ZABA Poslovnica","0-24 h",10340,"Vrbovec","Trg P. Zrinskog",8,"16° 25' 6""","45° 53' 6"""
21566,1,"Bankomat","PIK Mesna industrija Vrbovec","0-24 h",10340,"Vrbovec","Zagrebačka",148,"16° 24' 7""","45° 53' 2"""
21567,1,"Bankomat","Hotel Vrbovec - Bunčić","0-24 h",10340,"Vrbovec","Zagrebačka",4,"16° 24' 58""","45° 53' 18"""
21568,1,"Bankomat","Jukić Trgovina","0-24 h",21276,"Vrgorac","Hrvatskih velikana",36,"17° 22' 11""","43° 12' 20"""
21571,1,"Bankomat","Maistra d.d.","0-24 h",52450,"Vrsar","TN Belvedere",,"13° 36' 2""","45° 8' 50"""
21572,1,"Bankomat","Maistra d.d.","0-24 h",52450,"Vrsar","Naturističko naselje Koversada",,"13° 36' 9""","45° 8' 2"""
21573,1,"Bankomat","Maistra d.d.","0-24 h",52450,"Vrsar","Valkanela,  AC Valkanela (recepcija)",,"13° 36' 16""","45° 9' 49"""
21574,1,"Bankomat","Borovo-Standard","0-24 h",32000,"Vukovar","Blage Zadre",2,"18° 57' 47""","45° 22' 33"""
21575,1,"Bankomat","Velepromet Vukovar","0-24 h",32000,"Vukovar","Strossmayerova",5,"19° 0' 2""","45° 21' 9"""
21576,1,"Bankomat","Opća bolnica Zabok","u radno vrijeme objekta",49210,"Zabok","Bračak",8,"15° 56' 21""","46° 1' 5"""
22038,2,"Dnevno-noćni trezor","ZABA Poslovnica","0-24 h",49210,"Zabok","Matije Gupca",59,"15° 54' 13""","46° 1' 33"""
21116,1,"Bankomat","ZABA Poslovnica","0-24 h",49210,"Zabok","Matije Gupca",59,"15° 54' 13""","46° 1' 33"""
21117,1,"Bankomat","ZABA Poslovnica","0-24 h",49210,"Zabok","Matije Gupca",59,"15° 54' 13""","46° 1' 33"""
24054,4,"Uređaj za zaprimanje naloga","ZABA Poslovnica","0-24 h",49210,"Zabok","Matije Gupca",59,"15° 54' 13""","46° 1' 33"""
21577,1,"Bankomat","Trgocentar","0-24 h",49210,"Zabok","Matije Gupca",67,"15° 54' 5""","46° 1' 28"""
21578,1,"Bankomat","Trgocentar","u radno vrijeme objekta",49210,"Zabok","Radničko naselje","10/B","15° 54' 0""","46° 1' 17"""
21582,1,"Bankomat","Kaufland Hrvatska k.d.","u radno vrijeme objekta",23000,"Zadar","Andrije Hebranga",2,"15° 14' 26""","44° 7' 5"""
21580,1,"Bankomat","METRO Cash & Carry d.o.o.","u radno vrijeme objekta",23000,"Zadar","Put Murvice","BB","15° 19' 24""","44° 8' 31"""
21581,1,"Bankomat","Mercator-H. d.o.o.","0-24 h",23000,"Zadar","Ulica Bleiburških žrtava",17,"15° 15' 15""","44° 6' 57"""
21583,1,"Bankomat",,"0-24 h",10000,"Zagreb","Albaharijeva",3,"15° 57' 0""","45° 47' 28"""
21584,1,"Bankomat",,"0-24 h",10000,"Zagreb","Albaharijeva",3,"15° 57' 0""","45° 47' 28"""
21585,1,"Bankomat","Pohižek d.o.o.","0-24 h",10000,"Zagreb","Andrije Žaje",49,"15° 57' 17""","45° 48' 25"""
25261,2,"Dnevno-noćni trezor","ZABA poslovnica","0-24 h",10000,"Zagreb","Dubrava",47,"16° 3' 2""","45° 49' 43"""
25263,1,"Bankomat","ZABA poslovnica","0-24 h",10000,"Zagreb","Dubrava",47,"16° 3' 2""","45° 49' 43"""
25264,4,"Uređaj za zaprimanje naloga","ZABA poslovnica","0-24 h",10000,"Zagreb","Dubrava",47,"16° 3' 2""","45° 49' 43"""
25265,1,"Bankomat","ZABA poslovnica","0-24 h",10000,"Zagreb","Dubrava",47,"16° 3' 2""","45° 49' 43"""
25266,1,"Bankomat","ZABA poslovnica","0-24 h",10000,"Zagreb","Dubrava",47,"16° 3' 2""","45° 49' 43"""
21591,1,"Bankomat","Autobusni kolodvor","0-24 h",10000,"Zagreb","Avenija Marina Držića","BB","15° 59' 36""","45° 48' 14"""
21592,1,"Bankomat","Autobusni kolodvor","u radno vrijeme objekta",10000,"Zagreb","Avenija Marina Držića","BB","15° 59' 36""","45° 48' 14"""
21594,1,"Bankomat","RECRO d.d.","0-24 h",10000,"Zagreb","Avenija Većeslava Holjevca",40,"15° 58' 48""","45° 45' 47"""
21587,1,"Bankomat","Avenue Mall - Jug","u radno vrijeme objekta",10000,"Zagreb","Avenija Dubrovnik",16,"15° 58' 42""","45° 46' 37"""
21589,1,"Bankomat","Avenue Mall, info pult","u radno vrijeme objekta",10000,"Zagreb","Avenija Dubrovnik",16,"15° 58' 42""","45° 46' 37"""
22049,2,"Dnevno-noćni trezor","Avenue Mall","0-24 h",10000,"Zagreb","Avenija Dubrovnik",16,"15° 58' 42""","45° 46' 37"""
21595,1,"Bankomat","BILLA d.o.o.","0-24 h",10000,"Zagreb","Banjavčićeva",13,"16° 0' 3""","45° 48' 36"""
21596,1,"Bankomat","Poslovni prostor","0-24 h",10000,"Zagreb","Barčev trg","BB","15° 59' 45""","45° 46' 36"""
21597,1,"Bankomat","Ljekarna Falak","0-24 h",10000,"Zagreb","Bencekovićeva",46,"15° 57' 46""","45° 46' 59"""
21598,1,"Bankomat","Institut Ruđer Bošković","0-24 h",10000,"Zagreb","Bijenička cesta",54,"15° 59' 9""","45° 49' 46"""
21599,1,"Bankomat","Gospodar d.o.o.","u radno vrijeme objekta",10000,"Zagreb","Bogovićeva",7,"15° 58' 29""","45° 48' 44"""
21600,1,"Bankomat","Psihijatrijska bolnica Vrapče","u radno vrijeme objekta",10000,"Zagreb","Bolnička cesta",32,"15° 53' 50""","45° 48' 57"""
21601,1,"Bankomat","Poslovni prostor","0-24 h",10000,"Zagreb","Braće Domany",4,"15° 56' 17""","45° 47' 25"""
21602,1,"Bankomat","FOTOMEDIKAL","0-24 h",10000,"Zagreb","Braće Domany",8,"15° 56' 17""","45° 47' 19"""
21603,1,"Bankomat","Branimir Centar","0-24 h",10000,"Zagreb","Branimirova",29,"15° 59' 5""","45° 48' 20"""
21604,1,"Bankomat","TD Tržnice Zagreb d.o.o.","0-24 h",10000,"Zagreb","Branimirova",67,"15° 59' 29""","45° 48' 23"""
21605,1,"Bankomat","TD Tržnice Zagreb d.o.o.","0-24 h",10000,"Zagreb","Britanski trg","BB","15° 57' 54""","45° 48' 46"""
21606,1,"Bankomat","RADIŠ d.o.o.","0-24 h",10000,"Zagreb","Brune Bušića",8,"15° 59' 12""","45° 46' 46"""
21607,1,"Bankomat","Ljekarna Baniček","0-24 h",10000,"Zagreb","Čulinečka",25,"16° 3' 50""","45° 49' 30"""
21608,1,"Bankomat","Pizzeria Il Mondo","0-24 h",10000,"Zagreb","D. Zbiljskog",26,"16° 0' 25""","45° 47' 13"""
21609,1,"Bankomat","Ljekarna Udovičić-Martinis","0-24 h",10000,"Zagreb","Dobri dol",49,"15° 59' 54""","45° 49' 28"""
21126,1,"Bankomat","ZABA poslovnica","0-24 h",10000,"Zagreb","D. Golika",32,"15° 55' 47""","45° 48' 9"""
25324,1,"Bankomat","ZABA poslovnica","0-24 h",10000,"Zagreb","D. Golika",32,"15° 55' 47""","45° 48' 9"""
21610,1,"Bankomat","KONZUM d.d.","u radno vrijeme objekta",10000,"Zagreb","Dubečka","BB","16° 4' 46""","45° 49' 41"""
21611,1,"Bankomat","KONČAR","0-24 h",10000,"Zagreb","Fallerovo šetalište",22,"15° 56' 6""","45° 48' 6"""
21613,1,"Bankomat","Kazalište Gavella","0-24 h",10000,"Zagreb","Frankopanska",10,"15° 58' 10""","45° 48' 45"""
21614,1,"Bankomat","FLIBA d.o.o. MERCATONE","u radno vrijeme objekta",10000,"Zagreb","Gospodarska ulica",5,"15° 52' 48""","45° 44' 54"""
21615,1,"Bankomat","Poslovni prostor","0-24 h",10000,"Zagreb","Gospodska",32,"15° 53' 13""","45° 49' 3"""
21616,1,"Bankomat","Poslovni prostor","0-24 h",10000,"Zagreb","Gračanska cesta",72,"15° 58' 29""","45° 51' 17"""
21617,1,"Bankomat","Elektra","u radno vrijeme objekta",10000,"Zagreb","Gundulićeva",32,"15° 58' 19""","45° 48' 32"""
21618,1,"Bankomat","TD Tržnice Zagreb d.o.o.","0-24 h",10000,"Zagreb","Hatzeova",1,"15° 54' 6""","45° 47' 33"""
21619,1,"Bankomat","Dinova-Diona d.o.o.","0-24 h",10000,"Zagreb","Heinzelova","47/A","16° 0' 15""","45° 48' 36"""
21620,1,"Bankomat","MUP","u radno vrijeme objekta",10000,"Zagreb","Heinzelova",96,"16° 0' 53""","45° 47' 51"""
21622,1,"Bankomat","KONZUM d.d.","0-24 h",10000,"Zagreb","Hrgovići",77,"15° 55' 39""","45° 47' 7"""
21623,1,"Bankomat","TC Oktogon Dugave","0-24 h",10000,"Zagreb","Hribarov prilaz","6/A","15° 59' 34""","45° 45' 56"""
21624,1,"Bankomat","ŠRC Jarun","0-24 h",10000,"Zagreb","Hrvatskog sokola","BB","15° 55' 4""","45° 47' 9"""
21625,1,"Bankomat","Ivago Stanić","0-24 h",10000,"Zagreb","I Ferenščica",25,"16° 1' 8""","45° 48' 12"""
21626,1,"Bankomat","Hrvatski fond za privatizaciju","0-24 h",10000,"Zagreb","I. Lučića",6,"15° 58' 13""","45° 47' 49"""
21627,1,"Bankomat","IMPORTANNE GALLERIA","u radno vrijeme objekta",10000,"Zagreb","Iblerov trg",10,"15° 59' 7""","45° 48' 48"""
21628,1,"Bankomat","IMPORTANNE GALLERIA","u radno vrijeme objekta",10000,"Zagreb","Iblerov trg",10,"15° 59' 7""","45° 48' 48"""
21632,1,"Bankomat","Grad Zagreb","0-24 h",10000,"Zagreb","Ilica",1,"15° 58' 33""","45° 48' 47"""
21127,1,"Bankomat","ZABA Poslovnica","0-24 h",10000,"Zagreb","Ilica",164,"15° 57' 20""","45° 48' 47"""
21128,1,"Bankomat","ZABA Poslovnica","0-24 h",10000,"Zagreb","Ilica",164,"15° 57' 20""","45° 48' 47"""
24060,4,"Uređaj za zaprimanje naloga","ZABA Poslovnica","u radno vrijeme objekta",10000,"Zagreb","Ilica",164,"15° 57' 20""","45° 48' 47"""
21633,1,"Bankomat","MAXI SKONTO ĐEKIĆ","0-24 h",10000,"Zagreb","Ilica","167/A","15° 56' 52""","45° 48' 44"""
21634,1,"Bankomat","FINA","0-24 h",10000,"Zagreb","Ilica",307,"15° 55' 35""","45° 48' 48"""
21130,1,"Bankomat","ZABA poslovnica","0-24 h",10000,"Zagreb","Ilica",38,"15° 58' 15""","45° 48' 48"""
21131,1,"Bankomat","ZABA poslovnica","0-24 h",10000,"Zagreb","Ilica",38,"15° 58' 15""","45° 48' 48"""
24061,4,"Uređaj za zaprimanje naloga","ZABA Poslovnica","u radno vrijeme objekta",10000,"Zagreb","Ilica",38,"15° 58' 15""","45° 48' 48"""
25402,2,"Dnevno-noćni trezor","ZABA poslovnica","0-24 h",10000,"Zagreb","Ilica",38,"15° 58' 15""","45° 48' 48"""
21635,1,"Bankomat","NAMA","0-24 h",10000,"Zagreb","Ilica",4,"15° 58' 32""","45° 48' 47"""
21636,1,"Bankomat","Roto - promet d.o.o.","0-24 h",10000,"Zagreb","Ilica",506,"15° 54' 12""","45° 48' 48"""
21637,1,"Bankomat","Grad Zagreb","0-24 h",10000,"Zagreb","Ilica","BB","15° 56' 1""","45° 48' 54"""
21638,1,"Bankomat","N-Šarko","0-24 h",10000,"Zagreb","Ivane B. Mažuranić",46,"15° 53' 54""","45° 48' 24"""
21639,1,"Bankomat","BILLA d.o.o.","0-24 h",10000,"Zagreb","Jadranska avenija",2,"15° 56' 55""","45° 46' 39"""
21640,1,"Bankomat","Robni terminali Jankomir","u radno vrijeme objekta",10000,"Zagreb","Jankomir",25,"15° 52' 30""","45° 47' 57"""
21641,1,"Bankomat","METRO Cash & Carry d.o.o.","u radno vrijeme objekta",10000,"Zagreb","Jankomir",31,"15° 52' 53""","45° 47' 59"""
21642,1,"Bankomat","City Center One","u radno vrijeme objekta",10000,"Zagreb","Jankomir",33,"15° 53' 6""","45° 47' 59"""
25146,1,"Bankomat","City Center one","u radno vrijeme objekta",10000,"Zagreb","Jankomir",33,"15° 53' 6""","45° 47' 59"""
24068,4,"Uređaj za zaprimanje naloga","ZABA Poslovnica","0-24 h",10000,"Zagreb","Prosenikova",5,"15° 55' 53""","45° 47' 17"""
21152,1,"Bankomat","ZABA Poslovnica","0-24 h",10000,"Zagreb","Prosenikova",5,"15° 55' 53""","45° 47' 17"""
21153,1,"Bankomat","ZABA Poslovnica","0-24 h",10000,"Zagreb","Prosenikova",5,"15° 55' 53""","45° 47' 17"""
21643,1,"Bankomat","SD S.Radić","0-24 h",10000,"Zagreb","Jarunska",2,"15° 56' 50""","45° 47' 7"""
21132,1,"Bankomat","ZABA Poslovnica","u radno vrijeme objekta",10000,"Zagreb","Jurišićeva",22,"15° 58' 55""","45° 48' 44"""
25174,4,"Uređaj za zaprimanje naloga","ZABA poslovnica","u radno vrijeme objekta",10000,"Zagreb","Jurišićeva",22,"15° 58' 55""","45° 48' 44"""
21645,1,"Bankomat","KBC Zagreb, Rebro","0-24 h",10000,"Zagreb","Kišpatićeva",12,"16° 0' 23""","45° 49' 27"""
21646,1,"Bankomat","Klinika za dječije bolesti Zagreb","0-24 h",10000,"Zagreb","Klaićeva",16,"15° 57' 54""","45° 48' 33"""
21647,1,"Bankomat","Hotel Sheraton","0-24 h",10000,"Zagreb","Kneza Borne",2,"15° 59' 4""","45° 48' 27"""
21648,1,"Bankomat","Kaufland Hrvatska k.d.","u radno vrijeme objekta",10000,"Zagreb","Kneza Branimira",119,"16° 2' 11""","45° 49' 2"""
21649,1,"Bankomat","BILLA d.o.o.","0-24 h",10000,"Zagreb","Kneza Branimira",163,"16° 3' 49""","45° 49' 20"""
21650,1,"Bankomat","BILLA d.o.o.","0-24 h",10000,"Zagreb","Kneza Branimira",163,"16° 3' 49""","45° 49' 20"""
21133,1,"Bankomat","ZABA poslovnica","0-24 h",10000,"Zagreb","Koledinečka",2,"16° 3' 25""","45° 49' 56"""
21134,1,"Bankomat","ZABA poslovnica","0-24 h",10000,"Zagreb","Koledinečka",2,"16° 3' 25""","45° 49' 56"""
21135,1,"Bankomat","ZABA poslovnica","0-24 h",10000,"Zagreb","Koledinečka",2,"16° 3' 25""","45° 49' 56"""
21651,1,"Bankomat","Van Gogh caffe","0-24 h",10000,"Zagreb","Koranska","8/A","15° 58' 4""","45° 48' 4"""
21652,1,"Bankomat","Mini market Posavina","0-24 h",10000,"Zagreb","Kozari bok",58,"16° 2' 54""","45° 47' 38"""
21653,1,"Bankomat","FINA","0-24 h",10000,"Zagreb","Kralja Zvonimira",54,"15° 59' 50""","45° 48' 39"""
21654,1,"Bankomat","ERICSSON","0-24 h",10000,"Zagreb","Krapinska",45,"15° 56' 48""","45° 48' 12"""
21655,1,"Bankomat","Poslovni prostor","0-24 h",10000,"Zagreb","Krčelićeva",30,"15° 56' 16""","45° 49' 11"""
21656,1,"Bankomat","TC Borongaj","0-24 h",10000,"Zagreb","Krešićeva",32,"16° 1' 10""","45° 48' 52"""
21657,1,"Bankomat","SSSH","0-24 h",10000,"Zagreb","Krešimirov trg",2,"15° 59' 31""","45° 48' 31"""
21658,1,"Bankomat","KONZUM d.d.","0-24 h",10000,"Zagreb","Ksavera Šandora Đalskog",31,"16° 1' 31""","45° 48' 45"""
21659,1,"Bankomat","Hexo","0-24 h",10000,"Zagreb","Laurenčićeva",8,"16° 0' 14""","45° 47' 35"""
21660,1,"Bankomat","LURA","0-24 h",10000,"Zagreb","M. Čavića",9,"16° 1' 44""","45° 47' 58"""
21136,1,"Bankomat","ZABA Poslovnica","0-24 h",10000,"Zagreb","M. Gandhija",1,"15° 52' 38""","45° 48' 54"""
21137,1,"Bankomat","ZABA Poslovnica","0-24 h",10000,"Zagreb","M. Gandhija",1,"15° 52' 38""","45° 48' 54"""
21138,1,"Bankomat","ZABA Poslovnica","0-24 h",10000,"Zagreb","M. Gandhija",1,"15° 52' 38""","45° 48' 54"""
24063,4,"Uređaj za zaprimanje naloga","ZABA Poslovnica","u radno vrijeme objekta",10000,"Zagreb","M. Gandhija",1,"15° 52' 38""","45° 48' 54"""
24064,4,"Uređaj za zaprimanje naloga","ZABA Poslovnica","0-24 h",10000,"Zagreb","Maksimirska",86,"16° 0' 27""","45° 49' 2"""
25164,1,"Bankomat","ZABA poslovnica","0-24 h",10000,"Zagreb","Maksimirska",86,"16° 0' 27""","45° 49' 2"""
21139,1,"Bankomat","ZABA Poslovnica","0-24 h",10000,"Zagreb","Maksimirska",86,"16° 0' 27""","45° 49' 2"""
21140,1,"Bankomat","ZABA Poslovnica","0-24 h",10000,"Zagreb","Maksimirska",86,"16° 0' 27""","45° 49' 2"""
21141,1,"Bankomat","ZABA Poslovnica","0-24 h",10000,"Zagreb","Maksimirska",86,"16° 0' 27""","45° 49' 2"""
21142,1,"Bankomat","ZABA Poslovnica","0-24 h",10000,"Zagreb","Maksimirska",86,"16° 0' 27""","45° 49' 2"""
22041,2,"Dnevno-noćni trezor","ZABA Poslovnica","0-24 h",10000,"Zagreb","Maksimirska",86,"16° 0' 27""","45° 49' 2"""
21662,1,"Bankomat","Zavod za javno zdravstvo","0-24 h",10000,"Zagreb","Mirogojska cesta",16,"15° 58' 51""","45° 49' 55"""
21663,1,"Bankomat","Prehrana trgovina d.d.","0-24 h",10000,"Zagreb","Nehajska",22,"15° 56' 54""","45° 47' 47"""
21664,1,"Bankomat","Centar Kaptol","u radno vrijeme objekta",10000,"Zagreb","Nova Ves",17,"15° 58' 41""","45° 49' 13"""
21665,1,"Bankomat","ZABA Poslovnica","0-24 h",10000,"Zagreb","Nova Ves",17,"15° 58' 41""","45° 49' 13"""
21666,1,"Bankomat","Milka Pezo","0-24 h",10000,"Zagreb","Oboj",47,"16° 0' 40""","45° 50' 9"""
21667,1,"Bankomat","Crvena jabuka d.o.o.","0-24 h",10000,"Zagreb","Odakova",12,"15° 54' 27""","45° 47' 37"""
21668,1,"Bankomat","SD Cvjetno naselje","0-24 h",10000,"Zagreb","Odranska",8,"15° 57' 42""","45° 47' 26"""
21669,1,"Bankomat","VJESNIK","0-24 h",10000,"Zagreb","Odranska","BB","15° 57' 35""","45° 47' 34"""
21670,1,"Bankomat","ZET","0-24 h",10000,"Zagreb","Okretište tramvaja Mihaljevac",,"15° 58' 26""","45° 50' 31"""
21671,1,"Bankomat","ZET","0-24 h",10000,"Zagreb","Okretište tramvaja Savski most",,"15° 57' 10""","45° 47' 7"""
21672,1,"Bankomat","FINA","0-24 h",10000,"Zagreb","Ozaljska",10,"15° 57' 10""","45° 47' 60"""
21673,1,"Bankomat","FINA","0-24 h",10000,"Zagreb","Ozaljska",10,"15° 57' 10""","45° 47' 60"""
21147,1,"Bankomat","ZABA Poslovnica","0-24 h",10000,"Zagreb","Ozaljska",158,"15° 56' 14""","45° 47' 51"""
21148,1,"Bankomat","ZABA Poslovnica","0-24 h",10000,"Zagreb","Ozaljska",158,"15° 56' 14""","45° 47' 51"""
21149,1,"Bankomat","ZABA Poslovnica","0-24 h",10000,"Zagreb","Ozaljska",158,"15° 56' 14""","45° 47' 51"""
24066,4,"Uređaj za zaprimanje naloga","ZABA Poslovnica","0-24 h",10000,"Zagreb","Ozaljska",158,"15° 56' 14""","45° 47' 51"""
21674,1,"Bankomat","TD Tržnice Zagreb d.o.o.","0-24 h",10000,"Zagreb","Pakoštanska",5,"15° 55' 41""","45° 47' 27"""
21675,1,"Bankomat","Gradsko poglavarstvo","0-24 h",10000,"Zagreb","Park stara Trešnjevka",2,"15° 56' 56""","45° 47' 51"""
21676,1,"Bankomat","Tehno-Ron d.o.o.","0-24 h",10000,"Zagreb","Peruanska",6,"15° 52' 43""","45° 49' 4"""
21677,1,"Bankomat","MUP","0-24 h",10000,"Zagreb","Petrinjska",30,"15° 58' 48""","45° 48' 32"""
21678,1,"Bankomat","Restoran Real life","0-24 h",10000,"Zagreb","Petrova",60,"15° 59' 51""","45° 49' 3"""
21679,1,"Bankomat","Dinova-Diona d.o.o.","0-24 h",10000,"Zagreb","Pičmanova",1,"15° 59' 17""","45° 46' 31"""
21158,1,"Bankomat","ZABA Poslovnica","0-24 h",10000,"Zagreb","Slavenskog",4,"15° 53' 58""","45° 47' 46"""
21159,1,"Bankomat","ZABA Poslovnica","0-24 h",10000,"Zagreb","Slavenskog",4,"15° 53' 58""","45° 47' 46"""
24072,4,"Uređaj za zaprimanje naloga","ZABA Poslovnica","u radno vrijeme objekta",10000,"Zagreb","Slavenskog",4,"15° 53' 58""","45° 47' 46"""
21681,1,"Bankomat","Knjižnica B. Ogrizović","0-24 h",10000,"Zagreb","Preradovićeva",5,"15° 58' 28""","45° 48' 42"""
21682,1,"Bankomat","GETRO d.o.o.","u radno vrijeme objekta",10000,"Zagreb","Prilaz baruna Filipovića","BB","15° 56' 4""","45° 48' 46"""
21684,1,"Bankomat","AUTO HRVATSKA","0-24 h",10000,"Zagreb","Radnička cesta",182,"16° 1' 17""","45° 47' 41"""
22045,2,"Dnevno-noćni trezor","ZABA Poslovnica","0-24 h",10000,"Zagreb","Vanje Radauša",1,"16° 1' 36""","45° 49' 11"""
21171,1,"Bankomat","ZABA Poslovnica","0-24 h",10000,"Zagreb","Vanje Radauša",1,"16° 1' 36""","45° 49' 11"""
24077,4,"Uređaj za zaprimanje naloga","ZABA poslovnica","0-24 h",10000,"Zagreb","Vanje Radauša",1,"16° 1' 36""","45° 49' 11"""
25338,1,"Bankomat","ZABA poslovnica","0-24 h",10000,"Zagreb","Vanje Radauša",1,"16° 1' 36""","45° 49' 11"""
21685,1,"Bankomat","Hotel ""I""","0-24 h",10000,"Zagreb","Remetinečka cesta",106,"15° 56' 48""","45° 46' 18"""
21154,1,"Bankomat","ZABA poslovnica","0-24 h",10000,"Zagreb","Remetinečki gaj","27/B","15° 56' 51""","45° 46' 10"""
25283,4,"Uređaj za zaprimanje naloga","ZABA poslovnica","0-24 h",10000,"Zagreb","Remetinečki gaj","27/B","15° 56' 51""","45° 46' 10"""
25284,2,"Dnevno-noćni trezor","ZABA poslovnica","0-24 h",10000,"Zagreb","Remetinečki gaj","27/B","15° 56' 51""","45° 46' 10"""
25285,1,"Bankomat","ZABA poslovnica","0-24 h",10000,"Zagreb","Remetinečki gaj","27/B","15° 56' 51""","45° 46' 10"""
21686,1,"Bankomat","Triglav Osiguranje","0-24 h",10000,"Zagreb","Republike Austrije",1,"15° 57' 27""","45° 48' 47"""
21687,1,"Bankomat","BILLA d.o.o.","0-24 h",10000,"Zagreb","Republike Njemačke",3,"15° 59' 33""","45° 45' 40"""
22043,2,"Dnevno-noćni trezor","ZABA Poslovnica","0-24 h",10000,"Zagreb","Resselova",2,"15° 58' 40""","45° 46' 36"""
21155,1,"Bankomat","ZABA Poslovnica","0-24 h",10000,"Zagreb","Resselova",2,"15° 58' 40""","45° 46' 36"""
21156,1,"Bankomat","ZABA Poslovnica","0-24 h",10000,"Zagreb","Resselova",2,"15° 58' 40""","45° 46' 36"""
24070,4,"Uređaj za zaprimanje naloga","ZABA Poslovnica","u radno vrijeme objekta",10000,"Zagreb","Resselova",2,"15° 58' 40""","45° 46' 36"""
21689,1,"Bankomat","GETRO d.o.o.","u radno vrijeme objekta",10000,"Zagreb","Sajmišna cesta",4,"16° 0' 19""","45° 46' 48"""
21176,1,"Bankomat","ZABA Poslovnica","0-24 h",10000,"Zagreb","Zinke Kunc",2,"15° 59' 50""","45° 47' 35"""
21177,1,"Bankomat","ZABA Poslovnica","0-24 h",10000,"Zagreb","Zinke Kunc",2,"15° 59' 50""","45° 47' 35"""
25245,4,"Uređaj za zaprimanje naloga","ZABA poslovnica","0-24 h",10000,"Zagreb","Zinke Kunc",2,"15° 59' 50""","45° 47' 35"""
21692,1,"Bankomat","GSKG","0-24 h",10000,"Zagreb","Savska",1,"15° 58' 4""","45° 48' 26"""
21157,1,"Bankomat","ZABA poslovnica","0-24 h",10000,"Zagreb","Savska cesta",60,"15° 57' 38""","45° 47' 54"""
24071,4,"Uređaj za zaprimanje naloga","ZABA Poslovnica","u radno vrijeme objekta",10000,"Zagreb","Savska cesta",60,"15° 57' 38""","45° 47' 54"""
21693,1,"Bankomat","Poslovni prostor","0-24 h",10000,"Zagreb","Savska",66,"15° 57' 37""","45° 47' 50"""
21695,1,"Bankomat","Mandić Pharm","0-24 h",10000,"Zagreb","Savski Gaj IX put",,"15° 57' 10""","45° 46' 21"""
21696,1,"Bankomat","Studenski centar","0-24 h",10000,"Zagreb","Savska",25,"15° 57' 57""","45° 48' 15"""
21697,1,"Bankomat","Allianz","0-24 h",10000,"Zagreb","Selska 136",136,"15° 56' 36""","45° 47' 45"""
21698,1,"Bankomat","Pittarello East d.o.o.","u radno vrijeme objekta",10000,"Zagreb","Selska",144,"15° 56' 40""","45° 47' 27"""
21700,1,"Bankomat","AMK Siget","0-24 h",10000,"Zagreb","Siget",17,"15° 58' 4""","45° 46' 24"""
21701,1,"Bankomat","Lesnina-H d.o.o.","0-24 h",10000,"Zagreb","Slavonska avenija",106,"16° 6' 12""","45° 48' 19"""
21704,1,"Bankomat","METRO Cash & Carry d.o.o.","u radno vrijeme objekta",10000,"Zagreb","Slavonska avenija",71,"16° 6' 54""","45° 48' 17"""
21706,1,"Bankomat","OMV Istrabenz","0-24 h",10000,"Zagreb","Slavonska avenija","BB","16° 0' 44""","45° 47' 46"""
21707,1,"Bankomat","Prehrana trgovina d.d.","0-24 h",10000,"Zagreb","Srebrnjak",102,"15° 59' 34""","45° 49' 33"""
21708,1,"Bankomat","RETEL d.o.o.","0-24 h",10000,"Zagreb","Sveti Duh",2,"15° 56' 32""","45° 48' 49"""
21709,1,"Bankomat","Ljekarna Barlović","0-24 h",10000,"Zagreb","Šestinski dol",5,"15° 56' 40""","45° 48' 60"""
21710,1,"Bankomat","Poslovni prostor","0-24 h",10000,"Zagreb","Šetalište 10. brigade",5,"15° 54' 24""","45° 47' 53"""
21711,1,"Bankomat","KIKA","u radno vrijeme objekta",10000,"Zagreb","Škorpikova",25,"15° 51' 38""","45° 47' 51"""
21713,1,"Bankomat","KING CROSS","u radno vrijeme objekta",10000,"Zagreb","Škorpikova",34,"15° 51' 22""","45° 47' 47"""
21714,1,"Bankomat","Bauhaus - Zagreb KD","u radno vrijeme objekta",10000,"Zagreb","Škorpikova","BB","15° 51' 45""","45° 47' 47"""
21715,1,"Bankomat","Predstavnici suvl. Šubićeva 40","0-24 h",10000,"Zagreb","Šubićeva",40,"15° 59' 48""","45° 48' 48"""
21716,1,"Bankomat","Centar Kaptol","0-24 h",10000,"Zagreb","Tkalčićeva",,"15° 58' 36""","45° 49' 12"""
21160,1,"Bankomat","ZABA poslovnica","0-24 h",10000,"Zagreb","Tratinska",69,"15° 57' 25""","45° 48' 2"""
24073,4,"Uređaj za zaprimanje naloga","ZABA Poslovnica","u radno vrijeme objekta",10000,"Zagreb","Tratinska",69,"15° 57' 25""","45° 48' 2"""
25247,1,"Bankomat","ZABA poslovnica","0-24 h",10000,"Zagreb","Tratinska",69,"15° 57' 25""","45° 48' 2"""
25248,2,"Dnevno-noćni trezor","ZABA poslovnica","0-24 h",10000,"Zagreb","Tratinska",69,"15° 57' 25""","45° 48' 2"""
21124,1,"Bankomat","ZABA Poslovnica","0-24 h",10000,"Zagreb","Božidara Magovca",23,"15° 59' 43""","45° 46' 18"""
21125,1,"Bankomat","ZABA Poslovnica","0-24 h",10000,"Zagreb","Božidara Magovca",23,"15° 59' 43""","45° 46' 18"""
21717,1,"Bankomat","Pothodnik Glavnog kolodvora","0-24 h",10000,"Zagreb","Trg A. Starčevića","BB","15° 58' 37""","45° 48' 17"""
21718,1,"Bankomat","Pothodnik Glavnog kolodvora","0-24 h",10000,"Zagreb","Trg A. Starčevića","BB","15° 58' 37""","45° 48' 17"""
21719,1,"Bankomat","Pothodnik Glavnog kolodvora","0-24 h",10000,"Zagreb","Trg A. Starčevića","BB","15° 58' 37""","45° 48' 17"""
21720,1,"Bankomat","Anatom","0-24 h",10000,"Zagreb","Trg I. Kukuljevića",3,"15° 53' 44""","45° 48' 15"""
21721,1,"Bankomat","Anatom","0-24 h",10000,"Zagreb","Trg I. Kukuljevića",3,"15° 53' 44""","45° 48' 15"""
21722,1,"Bankomat","Glavni kolodvor","0-24 h",10000,"Zagreb","Trg k. Tomislava","BB","15° 58' 43""","45° 48' 17"""
21168,1,"Bankomat","ZABA Poslovnica","0-24 h",10000,"Zagreb","Trg S. Konzula",3,"16° 1' 10""","45° 48' 25"""
21169,1,"Bankomat","ZABA Poslovnica","0-24 h",10000,"Zagreb","Trg S. Konzula",3,"16° 1' 10""","45° 48' 25"""
24075,4,"Uređaj za zaprimanje naloga","ZABA Poslovnica","u radno vrijeme objekta",10000,"Zagreb","Trg S. Konzula",3,"16° 1' 10""","45° 48' 25"""
21723,1,"Bankomat","Gradsko poglavarstvo","u radno vrijeme objekta",10000,"Zagreb","Trg S. Radića",3,"15° 58' 37""","45° 48' 5"""
21724,1,"Bankomat","Hotel Panorama","0-24 h",10000,"Zagreb","Trg sportova",9,"15° 57' 9""","45° 48' 21"""
21725,1,"Bankomat","PP Maksimir","0-24 h",10000,"Zagreb","Trg Sv. Šimuna",1,"16° 0' 52""","45° 52' 33"""
21726,1,"Bankomat","Kemoboja","0-24 h",10000,"Zagreb","Trnsko",29,"15° 57' 52""","45° 46' 25"""
21728,1,"Bankomat","Tekstilpromet d.d.","u radno vrijeme objekta",10000,"Zagreb","Ul. Grada Gospića","1/A","16° 1' 50""","45° 48' 7"""
21729,1,"Bankomat","Interspar Retkovec","0-24 h",10000,"Zagreb","Ulica kneza Branimira",181,"16° 4' 47""","45° 49' 31"""
21730,1,"Bankomat","Audio i video Ben Hur","0-24 h",10000,"Zagreb","VIII Vrbik","33/D","15° 57' 57""","45° 47' 43"""
21731,1,"Bankomat","Dinova-Diona d.o.o.","0-24 h",10000,"Zagreb","Viktora Kovačića",3,"15° 59' 11""","45° 46' 37"""
21732,1,"Bankomat","Kaufland Hrvatska k.d.","u radno vrijeme objekta",10000,"Zagreb","Vile Velebita",6,"16° 3' 29""","45° 50' 3"""
25152,1,"Bankomat","Kaufland Hrvatska k.d.","u radno vrijeme objekta",10000,"Zagreb","Vile Velebita",6,"16° 3' 29""","45° 50' 3"""
21733,1,"Bankomat","KB Sestara Milosrdnica","0-24 h",10000,"Zagreb","Vinogradska",29,"15° 57' 13""","45° 48' 55"""
21172,1,"Bankomat","ZABA Poslovnica","0-24 h",10000,"Zagreb","Vlaška",106,"15° 59' 40""","45° 48' 50"""
21173,1,"Bankomat","ZABA Poslovnica","0-24 h",10000,"Zagreb","Vlaška",106,"15° 59' 40""","45° 48' 50"""
21174,1,"Bankomat","ZABA Poslovnica","0-24 h",10000,"Zagreb","Vlaška",106,"15° 59' 40""","45° 48' 50"""
24078,4,"Uređaj za zaprimanje naloga","ZABA Poslovnica","0-24 h",10000,"Zagreb","Vlaška",106,"15° 59' 40""","45° 48' 50"""
25403,3,"Uređaj za polog kovanica","ZABA poslovnica","0-24 h",10000,"Zagreb","Vlaška",106,"15° 59' 40""","45° 48' 50"""
25325,1,"Bankomat","ZABA poslovnica","0-24 h",10000,"Zagreb","Vlaška",106,"15° 59' 40""","45° 48' 50"""
21737,1,"Bankomat","DETONO d.o.o.","0-24 h",10000,"Zagreb","Vrisnička",14,"15° 55' 24""","45° 47' 16"""
21738,1,"Bankomat","Salon cvijeća Dubravka","0-24 h",10000,"Zagreb","Vukovarska",254,"16° 0' 4""","45° 48' 4"""
21739,1,"Bankomat","Mercator-H. d.o.o.","0-24 h",10000,"Zagreb","Vukovarska","269/B","16° 0' 24""","45° 48' 11"""
21741,1,"Bankomat","Gradsko poglavarstvo","0-24 h",10000,"Zagreb","Vukovarska",60,"15° 58' 2""","45° 47' 58"""
21742,1,"Bankomat","FINA","0-24 h",10000,"Zagreb","Vukovarska",70,"15° 58' 21""","45° 47' 58"""
21743,1,"Bankomat","Općinski sud","0-24 h",10000,"Zagreb","Vukovarska",84,"15° 58' 54""","45° 47' 60"""
21175,1,"Bankomat","ZABA Poslovnica","0-24 h",10000,"Zagreb","Zadarska",77,"15° 56' 48""","45° 47' 36"""
24079,4,"Uređaj za zaprimanje naloga","ZABA Poslovnica","u radno vrijeme objekta",10000,"Zagreb","Zadarska",77,"15° 56' 48""","45° 47' 36"""
21744,1,"Bankomat","BILLA d.o.o.","0-24 h",10000,"Zagreb","Zagrebačka",3,"15° 55' 53""","45° 48' 49"""
21745,1,"Bankomat","Mercator-H. d.o.o.","u radno vrijeme objekta",10000,"Zagreb","Zagrebačka",94,"15° 54' 34""","45° 47' 48"""
21746,1,"Bankomat","Antunović TA d.o.o.","u radno vrijeme objekta",10000,"Zagreb","Zagrebačka av.","100/A","15° 53' 58""","45° 47' 50"""
21747,1,"Bankomat","GETRO d.o.o.","0-24 h",10000,"Zagreb","Zagrebačka avenija",7,"15° 55' 20""","45° 47' 41"""
21145,1,"Bankomat","ZABA Poslovnica","0-24 h",10000,"Zagreb","Meštrovićev trg",1,"15° 59' 47""","45° 46' 46"""
21146,1,"Bankomat","ZABA Poslovnica","0-24 h",10000,"Zagreb","Meštrovićev trg",1,"15° 59' 47""","45° 46' 46"""
21748,1,"Bankomat","Bauhaus - Zagreb k.d.","u radno vrijeme objekta",10000,"Zagreb","Žitnjak","BB","16° 3' 6""","45° 47' 56"""
21749,1,"Bankomat","Tehno-Ron d.o.o.","0-24 h",10290,"Zaprešić","Ferde Livadića",6,"15° 47' 52""","45° 51' 57"""
21750,1,"Bankomat","Kaufland Hrvatska k.d.","u radno vrijeme objekta",10290,"Zaprešić","Maršala Tita",107,"15° 48' 51""","45° 50' 46"""
21178,1,"Bankomat","ZABA Poslovnica","0-24 h",10290,"Zaprešić","Trg Mladosti","BB","15° 47' 59""","45° 51' 42"""
21179,1,"Bankomat","ZABA Poslovnica","0-24 h",10290,"Zaprešić","Trg Mladosti","BB","15° 47' 59""","45° 51' 42"""
21751,1,"Bankomat","BioProm d.o.o.","0-24 h",10290,"Zaprešić","Trg žrtava fašizma",17,"15° 48' 15""","45° 51' 26"""
22046,2,"Dnevno-noćni trezor","ZABA Poslovnica","0-24 h",10290,"Zaprešić","Ulica bana J. Jelačića",1,"15° 48' 17""","45° 51' 30"""
21180,1,"Bankomat","ZABA Poslovnica","0-24 h",10290,"Zaprešić","Ulica bana J. Jelačića",1,"15° 48' 17""","45° 51' 30"""
21181,1,"Bankomat","ZABA Poslovnica","0-24 h",10290,"Zaprešić","Ulica bana J. Jelačića",1,"15° 48' 17""","45° 51' 30"""
24080,4,"Uređaj za zaprimanje naloga","ZABA Poslovnica","0-24 h",10290,"Zaprešić","Ulica bana J. Jelačića",1,"15° 48' 17""","45° 51' 30"""
21752,1,"Bankomat","Trgocentar","u radno vrijeme objekta",10290,"Zaprešić","Ulica bana J. Jelačića",139,"15° 48' 9""","45° 52' 12"""
22047,2,"Dnevno-noćni trezor","ZABA Poslovnica","0-24 h",49250,"Zlatar","Gajeva",7,"16° 4' 47""","46° 5' 30"""
21182,1,"Bankomat","ZABA Poslovnica","0-24 h",49250,"Zlatar","Gajeva",7,"16° 4' 47""","46° 5' 30"""
24081,4,"Uređaj za zaprimanje naloga","ZABA Poslovnica","0-24 h",49250,"Zlatar","Gajeva",7,"16° 4' 47""","46° 5' 30"""
21753,1,"Bankomat","Preis super d.o.o.","0-24 h",49250,"Zlatar","Zagrebačka",1,"16° 4' 40""","46° 5' 30"""
21754,1,"Bankomat","Općina Zlatar Bistrica","0-24 h",49247,"Zlatar Bistrica","Vladimira Nazora",56,"16° 5' 2""","46° 2' 42"""
21760,1,"Bankomat","ZABA Poslovnica","0-24 h",10000,"Zagreb","F. Tenchinija","2/A","15° 54' 11""","45° 48' 2"""
21761,1,"Bankomat","ZABA Poslovnica","0-24 h",10000,"Zagreb","F. Tenchinija","2/A","15° 54' 11""","45° 48' 2"""
24083,4,"Uređaj za zaprimanje naloga","ZABA Poslovnica","0-24 h",10000,"Zagreb","F. Tenchinija","2/A","15° 54' 11""","45° 48' 2"""
22052,2,"Dnevno-noćni trezor","ZABA Poslovnica","0-24 h",10000,"Zagreb","F. Tenchinija","2/A","15° 54' 11""","45° 48' 2"""
21756,1,"Bankomat","KTC d.o.o.","0-24 h",48260,"Križevci","Nikole Tesle",18,"16° 32' 13""","46° 0' 57"""
21757,1,"Bankomat","Poslovni objekt","0-24 h",34000,"Požega","Matice hrvatske",31,"17° 40' 19""","45° 19' 54"""
21758,1,"Bankomat","Poslovni objekt","0-24 h",22000,"Šibenik","Bana J. Jelačića","13/A","15° 53' 47""","43° 44' 42"""
21759,1,"Bankomat","Preis super d.o.o.","0-24 h",49247,"Zlatar Bistrica","Zagorska",1,"16° 5' 4""","46° 3' 7"""
21328,1,"Bankomat","Mercator-H. d.o.o.","0-24 h",20350,"Metković","Splitska",1,"17° 38' 47""","43° 3' 15"""
21405,1,"Bankomat","Mercator-H. d.o.o.","u radno vrijeme objekta",52100,"Pula","Šijanska cesta","1/B","13° 51' 58""","44° 52' 55"""
21547,1,"Bankomat","Zračna luka Zagreb","0-24 h",10410,"Velika Gorica","Pleso","BB","16° 3' 39""","45° 43' 57"""
21763,1,"Bankomat","Prehrana trgovina d.d.","0-24 h",10000,"Zagreb","Bukovačka",225,"16° 0' 6""","45° 50' 24"""
21765,1,"Bankomat","Prehrana trgovina d.d.","0-24 h",10000,"Zagreb","Ratarska","BB","15° 54' 57""","45° 47' 57"""
21768,1,"Bankomat","Kaufland Hrvatska k.d.","0-24 h",10370,"Dugo Selo","Zagrebačka","67/67","16° 13' 35""","45° 48' 24"""
21771,1,"Bankomat","Hotel Sol Umag","0-24 h",52470,"Umag","Jadranska","BB","13° 30' 50""","45° 26' 39"""
21773,1,"Bankomat","ZABA Poslovnica","0-24 h",10000,"Zagreb","Radnička cesta",80,"16° 0' 25""","45° 48' 4"""
21776,1,"Bankomat","Vidović Trgopromet","0-24 h",10360,"Sesvete","Kaktusa",5,"16° 5' 7""","45° 49' 38"""
21777,1,"Bankomat","VE-TRGO d.o.o.","0-24 h",10000,"Zagreb","Bukovačka",23,"16° 0' 43""","45° 49' 19"""
21778,1,"Bankomat","Mesnica Vinđin","0-24 h",10000,"Zagreb","Lastovska","2/A","15° 59' 48""","45° 47' 39"""
25111,1,"Bankomat","ZABA Poslovnica","0-24 h",22211,"Vodice","Matije Gupca","BB","15° 46' 42""","43° 45' 35"""
25113,2,"Dnevno-noćni trezor","ZABA Poslovnica","0-24 h",22211,"Vodice","Matije Gupca","BB","15° 46' 42""","43° 45' 35"""
25115,1,"Bankomat","ZABA Poslovnica","0-24 h",43500,"Daruvar","Trg kralja Tomislava",20,"17° 13' 26""","45° 35' 35"""
25117,2,"Dnevno-noćni trezor","ZABA Poslovnica","0-24 h",43500,"Daruvar","Trg kralja Tomislava",20,"17° 13' 26""","45° 35' 35"""
25118,4,"Uređaj za zaprimanje naloga","ZABA Poslovnica","0-24 h",43500,"Daruvar","Trg kralja Tomislava",20,"17° 13' 26""","45° 35' 35"""
25119,1,"Bankomat","KONZUM d.d.","0-24 h",35410,"Batrina","Stjepana RadiÄ‡a",91,"17° 39' 40""","45° 11' 20"""
25121,1,"Bankomat","KERUM","0-24 h",20000,"Dubrovnik","Trg kralja Tomislava",7,"18° 4' 35""","42° 39' 19"""
25122,1,"Bankomat","poslovni objekt","0-24 h",53295,"Gajac","Lokal A11","BB","14° 53' 49""","44° 31' 52"""
25123,1,"Bankomat","Hotel Monte Mulini, Maistra d.d.","u radno vrijeme objekta",52210,"Rovinj","A. Smareglia","BB","13° 38' 13""","45° 4' 21"""
25124,1,"Bankomat","Istraturist Umag d.d.","0-24 h",52475,"Savudrija","Istarska ulica","BB","13° 30' 15""","45° 29' 31"""
25125,1,"Bankomat","KERUM","u radno vrijeme objekta",21460,"Stari Grad","Trajektno pristaniĹˇte","BB","16° 34' 31""","43° 10' 48"""
25126,1,"Bankomat","Maistra","0-24 h",52450,"Vrsar","Petalon Porto Sole","BB","13° 36' 14""","45° 8' 53"""
25128,1,"Bankomat","Trgovački obrt Vlado","0-24 h",23000,"Zadar","Miroslava KrleĹľe",1,"15° 13' 43""","44° 7' 14"""
25129,1,"Bankomat","Prehrana trgovina d.d.","0-24 h",10000,"Zagreb","Kozari put I","31/36","16° 2' 43""","45° 47' 27"""
25130,1,"Bankomat","ZABA Poslovnica","0-24 h",23000,"Zadar","Polačišće",2,"15° 14' 14""","44° 6' 37"""
25132,2,"Dnevno-noćni trezor","ZABA Poslovnica","0-24 h",23000,"Zadar","Polačišće",2,"15° 14' 14""","44° 6' 37"""
25133,1,"Bankomat","Kamp Kanegra","0-24 h",52470,"Umag","Kanegra","BB","13° 34' 12""","45° 28' 51"""
25134,1,"Bankomat","Plodine d.d.","0-24 h",10000,"Zagreb","Lanište",28,"15° 56' 35""","45° 46' 22"""
25136,1,"Bankomat","Tržnica Gajnice","0-24 h",10000,"Zagreb","Gajnice",32,"15° 52' 22""","45° 49' 1"""
25137,1,"Bankomat","Trgonom d.o.o.","0-24 h",42222,"Ljubešćica","Zagrebačka",19,"16° 23' 26""","46° 10' 26"""
25138,1,"Bankomat","KTC d.o.o.","0-24 h",48260,"Križevci","Trg svetog Florijana",1,"16° 32' 44""","46° 1' 21"""
25139,1,"Bankomat","Tržnica Volovčica","0-24 h",10000,"Zagreb","Trg Volovčice",1,"16° 1' 1""","45° 48' 37"""
25140,1,"Bankomat","TD Tržnice Zagreb d.o.o.","0-24 h",10000,"Zagreb","Dobriše Cesarića",71,"15° 53' 55""","45° 48' 10"""
25147,1,"Bankomat","ZABA Poslovnica","0-24 h",32270,"Županja","Veliki kraj",57,"18° 41' 37""","45° 4' 21"""
25141,1,"Bankomat","KONZUM d.d.","u radno vrijeme objekta",51500,"Krk","Svetog Petra","BB","14° 34' 21""","45° 1' 48"""
25142,1,"Bankomat","Kaufland k.d.","0-24 h",44320,"Kutina","Ljudevita Posavskog",32,"16° 46' 40""","45° 28' 33"""
25144,1,"Bankomat","Slobodna Dalmacija","0-24 h",22000,"Šibenik","Kralja Tomislava","BB","15° 53' 31""","43° 44' 5"""
25145,1,"Bankomat","Poslovni objekt","0-24 h",10000,"Zagreb","Horvaćanska cesta",31,"15° 56' 59""","45° 47' 15"""
25154,1,"Bankomat","West Gate Shopping Center","u radno vrijeme objekta",10298,"Donja Bistra","Zaprešićka",2,"15° 49' 29""","45° 52' 34"""
25155,1,"Bankomat","West Gate Shopping Center","u radno vrijeme objekta",10298,"Donja Bistra","Zaprešićka",2,"15° 49' 29""","45° 52' 34"""
25159,2,"Dnevno-noćni trezor","West Gate Shopping Center","u radno vrijeme objekta",10298,"Donja Bistra","Zaprešićka",2,"15° 49' 29""","45° 52' 34"""
25156,1,"Bankomat","ANT-COM d.o.o.","0-24 h",52100,"Pula","Trg 1. Svibnja",3,"13° 50' 56""","44° 52' 2"""
25150,1,"Bankomat","Kaufland Hrvatska k.d.","0-24 h",32100,"Vinkovci","Lapovačka",15,"18° 47' 53""","45° 17' 34"""
25158,1,"Bankomat","Kaufland Hrvatska k.d.","u radno vrijeme objekta",34000,"Požega","Njemačka ulica","bb","17° 41' 3""","45° 20' 12"""
25160,1,"Bankomat","KBC Zagreb, Bolnica Petrova","u radno vrijeme objekta",10000,"Zagreb","Petrova",13,"15° 59' 34""","45° 48' 56"""
25161,1,"Bankomat","KONZUM d.d.","0-24 h",10340,"Vrbovec","Zagrebačka","25/a","16° 24' 55""","45° 53' 13"""
25162,1,"Bankomat","Kordun d.d.","0-24 h",47240,"Slunj","Braće Radića",9,"15° 35' 17""","45° 7' 11"""
25163,1,"Bankomat","Općina Dubrava","0-24 h",10342,"Dubrava","Braće Radića",2,"16° 32' 9""","45° 50' 12"""
25165,1,"Bankomat","KONZUM d.d.","u radno vrijeme objekta",42240,"Ivanec","Ivanečko naselje",,"16° 8' 60""","46° 14' 5"""
25170,1,"Bankomat","KONZUM d.d.","0-24 h",10310,"Ivanić-Grad","Žitna","bb","16° 24' 19""","45° 42' 27"""
25171,1,"Bankomat","Trgovina Musto","0-24 h",23000,"Zadar","Trg tri bunara",4,"15° 13' 24""","44° 7' 4"""
25175,2,"Dnevno-noćni trezor","ZABA poslovnica","0-24 h",10000,"Zagreb","Iblerov trg",9,"15° 59' 6""","45° 48' 46"""
25177,1,"Bankomat","ZABA poslovnica","0-24 h",10000,"Zagreb","Iblerov trg",9,"15° 59' 6""","45° 48' 46"""
25178,1,"Bankomat","ZABA poslovnica","0-24 h",10000,"Zagreb","Iblerov trg",9,"15° 59' 6""","45° 48' 46"""
25401,4,"Uređaj za zaprimanje naloga","ZABA poslovnica","0-24 h",10000,"Zagreb","Iblerov trg",9,"15° 59' 6""","45° 48' 46"""
25179,1,"Bankomat","Trgovački centar Koprivnica","u radno vrijeme objekta",48000,"Koprivnica","Radnička cesta",8,"16° 50' 7""","46° 8' 40"""
25180,1,"Bankomat","TOBACO","0-24 h",10000,"Zagreb","Dubrava",217,"16° 4' 5""","45° 49' 44"""
25181,1,"Bankomat","KONZUM d.d.","0-24 h",10000,"Zagreb","Ilica",288,"15° 55' 51""","45° 48' 55"""
25183,1,"Bankomat","Trgocentar Marija","0-24 h",10299,"Marija Gorica","Gorička",1,"15° 43' 38""","45° 54' 42"""
25184,1,"Bankomat","Hotel Valdaliso","u radno vrijeme objekta",52210,"Rovinj","Monsena","bb","13° 37' 31""","45° 6' 3"""
25185,1,"Bankomat","Konzum dd","u radno vrijeme objekta",10000,"Zagreb","Dankovečka",95,"16° 3' 18""","45° 50' 29"""
25199,1,"Bankomat","Kaufland Hrvatska k.d.","0-24 h",52440,"Poreč","Mate Vlašića","bb","13° 37' 15""","45° 13' 52"""
25200,1,"Bankomat","Mercator - H d.o.o.","0-24 h",10410,"Velika Gorica","Trg kralja Petra Krešimira IV","bb","16° 4' 40""","45° 42' 44"""
25201,1,"Bankomat","Importanne Centar","u radno vrijeme objekta",10000,"Zagreb","Trg Ante Starčevića","bb","15° 58' 37""","45° 48' 17"""
25202,1,"Bankomat","ZABA poslovnica","0-24 h",10000,"Zagreb","Rudeška cesta",169,"15° 54' 50""","45° 47' 29"""
25203,1,"Bankomat","ZABA poslovnica","0-24 h",10000,"Zagreb","Rudeška cesta",169,"15° 54' 50""","45° 47' 29"""
25205,1,"Bankomat","Ljekarna Kremić","0-24 h",23232,"Nin","J. Barakovića",5,"15° 10' 49""","44° 14' 15"""
25206,1,"Bankomat","Fast food Tomato","0-24 h",21315,"Dugi Rat","Poljička cesta",133,"16° 38' 25""","43° 26' 40"""
25207,1,"Bankomat","Suvenirnica","0-24 h",23000,"Zadar","Matoševa",10,"15° 12' 46""","44° 7' 58"""
25208,1,"Bankomat","Tureta Tours","0-24 h",22243,"Murter","Trg Rudine","bb","15° 35' 30""","43° 49' 21"""
25209,1,"Bankomat","NP Brijuni","0-24 h",52212,"Fažana","Boraca",2,"13° 48' 13""","44° 55' 36"""
25233,1,"Bankomat","Vodoopskrba i odvodnja","0-24 h",10000,"Zagreb","Folnegovićeva",1,"16° 0' 32""","45° 47' 60"""
25236,1,"Bankomat","Pothodnik Glavnog kolodvora","0-24 h",10000,"Zagreb","Trg Ante Starčevića","1/bb","15° 58' 37""","45° 48' 17"""
25241,1,"Bankomat","Trgovački centar Garden Mall","u radno vrijeme objekta",10000,"Zagreb","Oporovečka",13,"16° 2' 17""","45° 49' 53"""
25244,1,"Bankomat","Bi Village (Valbandon)","0-24 h",52212,"Valbandon","Dragonja",115,"13° 48' 34""","44° 55' 3"""
25302,2,"Dnevno-noćni trezor","ZABA poslovnica","0-24 h",23000,"Zadar","Brne Krnarutića",13,"15° 13' 34""","44° 6' 58"""
25311,4,"Uređaj za zaprimanje naloga","ZABA poslovnica","u radno vrijeme objekta",23000,"Zadar","Brne Krnarutića",13,"15° 13' 34""","44° 6' 58"""
25313,1,"Bankomat","ZABA poslovnica","0-24 h",23000,"Zadar","Brne Krnarutića",13,"15° 13' 34""","44° 6' 58"""
25250,1,"Bankomat","KONZUM d.d.","u radno vrijeme objekta",21000,"Split","Kralja Stjepana Držislava",22,"16° 30' 17""","43° 30' 20"""
25251,1,"Bankomat","Arena Centar","u radno vrijeme objekta",10000,"Zagreb","Jaruščica","1/bb","15° 56' 32""","45° 46' 9"""
25253,1,"Bankomat",,"u radno vrijeme objekta",21000,"Split","Brnik",,"16° 29' 56""","43° 30' 49"""
25255,1,"Bankomat","ZABA poslovnica","0-24 h",10000,"Zagreb","Masarykova",11,"15° 58' 23""","45° 48' 39"""
25256,1,"Bankomat","ZABA poslovnica","0-24 h",10000,"Zagreb","Masarykova",11,"15° 58' 23""","45° 48' 39"""
25400,4,"Uređaj za zaprimanje naloga","ZABA poslovnica","0-24 h",10000,"Zagreb","Masarykova",11,"15° 58' 23""","45° 48' 39"""
25257,1,"Bankomat","ZABA poslovnica","0-24 h",32000,"Vukovar","Europske unije",1,"19° 0' 10""","45° 20' 57"""
25258,2,"Dnevno-noćni trezor","ZABA poslovnica","0-24 h",32000,"Vukovar","Europske unije",1,"19° 0' 10""","45° 20' 57"""
25269,1,"Bankomat","Park&Shop - Dosis d.o.o.","0-24 h",21260,"Glavina Donja","Glavina Donja",336,"17° 12' 6""","43° 26' 44"""
25270,1,"Bankomat","Pekara DORA - I","0-24 h",48000,"Koprivnica","Trg Eugena Kumičića","11/a","16° 50' 20""","46° 9' 42"""
25271,1,"Bankomat","ZABA poslovnica","0-24 h",10000,"Zagreb","Ilica",251,"15° 55' 60""","45° 48' 53"""
25272,1,"Bankomat","ZABA poslovnica","0-24 h",10000,"Zagreb","Ilica",251,"15° 55' 60""","45° 48' 53"""
25273,2,"Dnevno-noćni trezor","ZABA poslovnica","0-24 h",10000,"Zagreb","Ilica",251,"15° 55' 60""","45° 48' 53"""
25274,4,"Uređaj za zaprimanje naloga","ZABA poslovnica","0-24 h",10000,"Zagreb","Ilica",251,"15° 55' 60""","45° 48' 53"""
25276,1,"Bankomat","Mesnica ""Antonio""","0-24 h",10000,"Zagreb","Prekratova",1,"15° 57' 20""","45° 46' 30"""
25277,1,"Bankomat","KONZUM d.d.","0-24 h",10250,"Lučko","Gornjostupnička",41,"15° 51' 27""","45° 45' 26"""
25278,1,"Bankomat","TC Portanova","u radno vrijeme objekta",31000,"Osijek","Svilajska","31/a","18° 38' 18""","45° 33' 43"""
25279,1,"Bankomat","Ugostiteljski obrt Paleo","0-24 h",32252,"Otok","Vladimira Nazora",1,"18° 53' 8""","45° 8' 48"""
25281,2,"Dnevno-noćni trezor","ZABA poslovnica","0-24 h",51216,"Viškovo","Vozišće",24,"14° 22' 60""","45° 22' 51"""
25282,1,"Bankomat","ZABA poslovnica","0-24 h",51216,"Viškovo","Vozišće",24,"16° 17' 43""","45° 49' 20"""
25286,1,"Bankomat","konzum d.d.","0-24 h",10370,"Brckovljani","kralja zvonimira",8,"14° 7' 14""","45° 5' 33"""
25297,1,"Bankomat","ZABA poslovnica","0-24 h",52220,"Labin","Rudarska",8,"14° 7' 15""","45° 5' 32"""
25298,2,"Dnevno-noćni trezor","ZABA poslovnica","0-24 h",52220,"Labin","Rudarska",8,"15° 56' 33""","45° 48' 25"""
25287,1,"Bankomat","Poslovni objekt","0-24 h",10000,"Zagreb","Zagorska",18,"14° 23' 0""","45° 22' 51"""
25289,1,"Bankomat","HOTO CVIJETNI","u radno vrijeme objekta",10000,"Zagreb","Trg Petra Preradovića",6,"15° 58' 25""","45° 48' 45"""
25290,1,"Bankomat","konzum d.d.","0-24 h",51211,"Matulji","Trg maršala Tita",7,"14° 19' 27""","45° 21' 51"""
25291,1,"Bankomat","Ljekarna Naglić","0-24 h",10290,"Zaprešić","Trg  dr. Franje Tuđmana",2,"15° 47' 47""","45° 52' 12"""
25292,1,"Bankomat","Nižetić","0-24 h",52000,"Pazin","Dinka Trinajstića","4/b","13° 56' 16""","45° 14' 26"""
25294,1,"Bankomat","Opća bolnica Virovitica","u radno vrijeme objekta",33000,"Virovitica","Ljudevita Gaja",21,"17° 23' 19""","45° 49' 43"""
25295,1,"Bankomat","Penava","0-24 h",21000,"Split","Vinkovačka",21,"16° 27' 17""","43° 30' 44"""
25296,1,"Bankomat","Kaufland Hrvatska d.d.","0-24 h",21230,"Sinj","Miljenka Buljana",,"16° 39' 2""","43° 41' 56"""
25300,1,"Bankomat","Biljemerkant d.o.o","0-24 h",31220,"Višnjevac","bana Josipa Jelačića","67/a","18° 37' 19""","45° 33' 55"""
25301,1,"Bankomat","Ljekarna Dobrinec","0-24 h",10020,"Odra","Ivana Lackovića Croate",30,"15° 59' 40""","45° 43' 59"""
25303,2,"Dnevno-noćni trezor","TC Portanova","u radno vrijeme objekta",31000,"Osijek","Svilajska","31/a","18° 38' 18""","45° 33' 43"""
25304,1,"Bankomat","Mercator","u radno vrijeme objekta",52210,"Rovinj","stanga","bb","13° 39' 12""","45° 4' 49"""
25305,1,"Bankomat","Hotel Lone","u radno vrijeme objekta",52210,"Rovinj","A. Smareglia","bb","13° 38' 17""","45° 4' 28"""
25314,1,"Bankomat","Poduzetništvo Tomek","0-24 h",49210,"Zabok","Josipa Broza Tita",1,"15° 54' 27""","46° 1' 30"""
25316,1,"Bankomat","Poslovni objekt","0-24 h",52460,"Buje","Josipa Broza",2,"13° 39' 28""","45° 24' 34"""
25318,1,"Bankomat","Florijan d.o.o.","0-24 h",10450,"Jastrebarsko","Franje Tuđmana",,"15° 38' 53""","45° 40' 5"""
25319,1,"Bankomat","Habat trgovina d.o.o.","0-24 h",10000,"Zagreb","Vukomerec",23,"16° 2' 26""","45° 48' 27"""
25320,1,"Bankomat","Kaufland Hrvatska k.d.","0-24 h",10360,"Sesvete","Bistrička",6,"16° 6' 24""","45° 49' 60"""
25321,1,"Bankomat","Bauhaus","u radno vrijeme objekta",21000,"Split","Put Mostina",10,"16° 29' 5""","43° 31' 30"""
25322,1,"Bankomat","Poslovni objekt","0-24 h",10000,"Zagreb","Jablanska",56,"15° 54' 55""","45° 47' 48"""
25326,1,"Bankomat","Pominvest","0-24 h",23000,"Zadar","Knezova Šubića Bribirskih",4,"15° 13' 34""","44° 6' 56"""
25327,1,"Bankomat","Preis super d.o.o.","0-24 h",49243,"Oroslavje","Milana Prpića",112,"15° 55' 2""","45° 59' 40"""
25328,1,"Bankomat","BILLA d.o.o.","0-24 h",10000,"Zagreb","Vladimira Varićaka",9,"15° 59' 19""","45° 45' 55"""
25329,1,"Bankomat","APFEL d.o.o.","u radno vrijeme objekta",21300,"Makarska","Dubrovačka",,"17° 1' 50""","43° 17' 13"""
25330,1,"Bankomat","KONZUM d.d.","0-24 h",31327,"Bilje","Kralja Zvonimira",28,"18° 44' 37""","45° 36' 3"""
25331,1,"Bankomat","Sloga - Podravska trgovina d.o.o","0-24 h",48363,"Podravske Sesvete","Bana Josipa Jelačića",6,"17° 12' 43""","46° 0' 5"""
25332,1,"Bankomat","Konzum dd","u radno vrijeme objekta",10020,"Botinec","Sisačka cesta","bb","15° 56' 46""","45° 45' 27"""
25334,1,"Bankomat","Konzum dd","0-24 h",10000,"Zagreb","Grada Vukovara",275,"16° 0' 51""","45° 48' 13"""
25337,1,"Bankomat","Lesnina Hrvatska d.o.o","u radno vrijeme objekta",10000,"Zagreb","Velimira Škorpika",19,"15° 51' 30""","45° 47' 54"""
25339,1,"Bankomat","Poslovni objekt","0-24 h",32272,"Cerna","Kralja Tomislava",2,"18° 41' 22""","45° 11' 5"""
25343,1,"Bankomat","Autobusni kolodvor","0-24 h",10430,"Samobor","151. samoborske brigade HV",2,"15° 43' 0""","45° 48' 28"""
25344,1,"Bankomat","Hrvatska llutrija","0-24 h",35400,"Nova Gradiška","Karla Dieneša",7,"17° 22' 50""","45° 15' 42"""
25353,2,"Dnevno-noćni trezor","ZABA poslovnica","0-24 h",10000,"Zagreb","Samoborska cesta",145,"15° 51' 53""","45° 48' 41"""
25372,1,"Bankomat","ZABA poslovnica","0-24 h",10000,"Zagreb","Samoborska cesta",145,"15° 51' 53""","45° 48' 41"""
25346,4,"Uređaj za zaprimanje naloga","ZABA poslovnica","0-24 h",10000,"Zagreb","Samoborska cesta",145,"15° 51' 53""","45° 48' 41"""
25348,1,"Bankomat","ZABA poslovnica","0-24 h",10000,"Zagreb","Samoborska cesta",145,"15° 51' 53""","45° 48' 41"""
25345,1,"Bankomat","City centar one East","u radno vrijeme objekta",10000,"Zagreb","Slavonska avenija","11/d","16° 3' 14""","45° 48' 7"""
25349,1,"Bankomat","Konzum d.d.","0-24 h",51300,"Delnice","Podštore",1,"14° 48' 13""","45° 23' 36"""
25350,1,"Bankomat","Hrvatska lutrija","0-24 h",33520,"Slatina","Vladimira Nazora",56,"17° 42' 12""","45° 42' 20"""
25351,1,"Bankomat","Privatni objekt","0-24 h",21000,"Split","Poljana Tina Ujevića",2,"16° 26' 11""","43° 30' 40"""
25355,1,"Bankomat","Poslovni prostor","0-24 h",35000,"Slavonski Brod","Naselje Andrije Hebranga",86,"18° 2' 0""","45° 9' 26"""
25356,1,"Bankomat","Hotel Split","0-24 h",21312,"Podstrana","Strožanačka cesta",20,"16° 32' 5""","43° 30' 5"""
25359,1,"Bankomat","ZABA poslovnica","0-24 h",10000,"Zagreb","Miramarska cesta",23,"15° 58' 29""","45° 48' 8"""
25360,1,"Bankomat","ZABA poslovnica","0-24 h",10000,"Zagreb","Miramarska cesta",23,"15° 58' 29""","45° 48' 8"""
25361,2,"Dnevno-noćni trezor","ZABA poslovnica","0-24 h",10000,"Zagreb","Miramarska cesta",23,"15° 58' 29""","45° 48' 8"""
25362,3,"Uređaj za polog kovanica","ZABA poslovnica","0-24 h",10000,"Zagreb","Miramarska cesta",23,"15° 58' 29""","45° 48' 8"""
25363,4,"Uređaj za zaprimanje naloga","ZABA poslovnica","0-24 h",10000,"Zagreb","Miramarska cesta",23,"15° 58' 29""","45° 48' 8"""
25365,1,"Bankomat","Bure centar","0-24 h",23210,"Biograd na Moru","Dr. Franje Tuđmana",,"15° 27' 22''","43° 56' 34''"
25366,1,"Bankomat","Pine Beach","0-24 h",23211,"Pakoštane","Brune Bušića",,"15° 30' 13''","43° 54' 34''"
25367,1,"Bankomat","AC Park","0-24 h",52470,"Umag","AC Park",,"13° 31' 13''","45° 25' 60''"
25368,1,"Bankomat","Studenac d.o.o.","0-24 h",21426,"Sumartin","Sumartin","bb","16° 52' 17''","43° 17' 6''"
25369,1,"Bankomat","Općina Tar-Vabriga","0-24 h",52465,"Tar","Istarska",8,"13° 37' 43''","45° 17' 58''"
25371,1,"Bankomat","Zagrebački Velesajam","0-24 h",10000,"Zagreb","Avenija Dubrovnik",15,"15° 58' 7''","45° 46' 40''"
25375,1,"Bankomat","Mercator-H d.o.o","0-24 h",42000,"Varaždin","Gustava Krkleca","1/a","16° 19' 36''","46° 18' 43''"
25377,1,"Bankomat",,"0-24 h",10000,"Zagreb","Dubrava",1,"16° 2' 21''","45° 49' 30''"
25378,1,"Bankomat",,"0-24 h",43290,"Grubišno Polje","Nikole Šubića Zrinskog",18,"17° 10' 33''","45° 42' 10''"
25379,1,"Bankomat","Studentski Kampus","u radno vrijeme objekta",51000,"Rijeka","Slavka Krautzeka","1/bb","15° 58' 29''","45° 48' 8''"
25380,1,"Bankomat","Slobodna zona Varaždin","0-24 h",42202,"Trnovec","Gospodarska",1,"15° 58' 29''","45° 48' 8''"
25384,1,"Bankomat","EPIS d.o.o.","0-24 h",52420,"Buzet","Trg fontana",5,"16° 24' 47''","46° 17' 58''"
25385,2,"Dnevno-noćni trezor","ZABA poslovnica","0-24 h",20000,"Dubrovnik","Dr. A. Starčevića",45,"15° 58' 22''","45° 48' 1''"
25386,4,"Uređaj za zaprimanje naloga","ZABA poslovnica","0-24 h",20000,"Dubrovnik","Dr. A. Starčevića",45,"13° 57' 54''","45° 24' 22''"
25392,1,"Bankomat","ZABA poslovnica","0-24 h",20000,"Dubrovnik","Dr. A. Starčevića",45,"18° 5' 23''","45° 39' 7''"
25388,1,"Bankomat","Allianz Zagreb dd (zgrada Auto Hrvatske)","0-24 h",10000,"Zagreb","Heinzelova",70,"16° 0' 26''","45° 48' 16''"
25389,1,"Bankomat","Restoran ""Kod Ruže""","0-24 h",31000,"Osijek","Franje Kuhača","25/a","18° 41' 39''","45° 33' 37''"
25390,1,"Bankomat","Plava Laguna","0-24 h",52449,"Črvar","AC Ulika",,"13° 34' 59''","45° 15' 20''"
25391,1,"Bankomat","Poslovni prostor","0-24 h",20000,"Dubrovnik","Vukovarska",7,"18° 5' 12''","42° 39' 34''"
25393,1,"Bankomat","Little star","0-24 h",21220,"Trogir","Gradska vrata",2,"16° 15' 3''","43° 31' 3''"
25394,1,"Bankomat","Dijagram nekretnine d.o.o","0-24 h",10000,"Zagreb","Vodnikova",13,"15° 58' 1''","45° 48' 19''"
25395,1,"Bankomat","Varaždinske vijesti d.d.","0-24 h",42000,"Varaždin","Trg kralja Tomislava",7,"16° 20' 15''","46° 18' 31''"
25396,1,"Bankomat","Ljekarna Pavlić","0-24 h",44000,"Sisak","Kralja Tomislava",7,"16° 22' 33''","45° 28' 59''"
25398,1,"Bankomat","Tifon d.o.o.","0-24 h",23251,"Kolan","Kolan","bb","14° 57' 36''","44° 29' 41''"
25399,1,"Bankomat","TA Losinia","0-24 h",51550,"Mali Lošinj","Riva lošinjskih kapetana",8,"14° 27' 59''","44° 32' 8''"
25405,1,"Bankomat","Grad Zagreb - Javna površina","0-24 h",10000,"Zagreb","Trg bana Josipa Jelačića",10,"15° 58' 43""","45° 48' 46"""
25406,1,"Bankomat","Grad Zagreb - Javna površina","0-24 h",10000,"Zagreb","Trg bana Josipa Jelačića",10,"15° 58' 43""","45° 48' 46"""
25407,1,"Bankomat","Kaufland Hrvatska k.d.","0-24 h",22000,"Šibenik","Vukovarska 10",10,"15° 54' 29""","43° 43' 23"""
25408,1,"Bankomat","Casino Rosalia","0-24 h",51410,"Opatija","Ive Kaline",9,"14° 18' 51""","45° 20' 32"""
25409,1,"Bankomat","Konzum dd","u radno vrijeme objekta",51260,"Crikvenica","Kralja Tomislava",,"14° 41' 6""","45° 10' 54"""
25411,1,"Bankomat","Konzum dd","0-24 h",10000,"Zagreb","Praška",10,"15° 58' 38""","45° 48' 42"""
25412,1,"Bankomat","Croatia osiguranje dd","0-24 h",10000,"Zagreb","Trg bana Josipa Jelačića",12,"15° 58' 42""","45° 48' 45"""
25413,1,"Bankomat","Trgovina Mokošica","0-24 h",20236,"Mokošica","Maslinata",1,"18° 5' 52""","42° 40' 27"""
25414,1,"Bankomat","TN SOL Stella Maris","0-24 h",52470,"Umag","TN SOL Stella Maris",,"13° 31' 34""","45° 26' 15"""
25415,1,"Bankomat","Poslovni prostor","0-24 h",10000,"Zagreb","Svetog Mateja","106/a","16° 0' 5""","45° 45' 49"""
25416,1,"Bankomat","Shopping centar POINT","u radno vrijeme objekta",10000,"Zagreb","Rudeška cesta","169/a","15° 54' 50""","45° 47' 29"""
